{
 "cells": [
  {
   "cell_type": "code",
   "execution_count": 3,
   "id": "cddd72f2",
   "metadata": {},
   "outputs": [],
   "source": [
    "# install.packages(\"isdparser\")"
   ]
  },
  {
   "cell_type": "code",
   "execution_count": 2,
   "id": "67851bdc",
   "metadata": {},
   "outputs": [],
   "source": [
    "library('isdparser')"
   ]
  },
  {
   "cell_type": "code",
   "execution_count": 8,
   "id": "920ebb48",
   "metadata": {},
   "outputs": [],
   "source": [
    "path <- system.file('extdata/00702699999.csv', package = \"isdparser\")\n"
   ]
  },
  {
   "cell_type": "code",
   "execution_count": 9,
   "id": "4cfbce28",
   "metadata": {},
   "outputs": [
    {
     "name": "stderr",
     "output_type": "stream",
     "text": [
      "<path>/Users/bpo/opt/anaconda3/envs/r_env/lib/R/library/isdparser/extdata/00702699999.csv\n",
      "\n",
      "\n"
     ]
    },
    {
     "data": {
      "text/html": [
       "<table>\n",
       "<caption>A tibble: 6843 × 68</caption>\n",
       "<thead>\n",
       "\t<tr><th scope=col>station</th><th scope=col>date</th><th scope=col>source</th><th scope=col>latitude</th><th scope=col>longitude</th><th scope=col>elevation</th><th scope=col>name</th><th scope=col>report_type</th><th scope=col>call_sign</th><th scope=col>quality_control</th><th scope=col>⋯</th><th scope=col>high_cloud_genus</th><th scope=col>high_cloud_genus_quality</th><th scope=col>altimeter_setting_rate</th><th scope=col>altimeter_quality_code</th><th scope=col>station_pressure_rate</th><th scope=col>station_pressure_quality_code</th><th scope=col>speed_rate</th><th scope=col>quality_code</th><th scope=col>rem</th><th scope=col>eqd</th></tr>\n",
       "\t<tr><th scope=col>&lt;int&gt;</th><th scope=col>&lt;dttm&gt;</th><th scope=col>&lt;int&gt;</th><th scope=col>&lt;dbl&gt;</th><th scope=col>&lt;dbl&gt;</th><th scope=col>&lt;dbl&gt;</th><th scope=col>&lt;chr&gt;</th><th scope=col>&lt;chr&gt;</th><th scope=col>&lt;int&gt;</th><th scope=col>&lt;chr&gt;</th><th scope=col>⋯</th><th scope=col>&lt;chr&gt;</th><th scope=col>&lt;chr&gt;</th><th scope=col>&lt;chr&gt;</th><th scope=col>&lt;chr&gt;</th><th scope=col>&lt;chr&gt;</th><th scope=col>&lt;chr&gt;</th><th scope=col>&lt;chr&gt;</th><th scope=col>&lt;chr&gt;</th><th scope=col>&lt;chr&gt;</th><th scope=col>&lt;chr&gt;</th></tr>\n",
       "</thead>\n",
       "<tbody>\n",
       "\t<tr><td>702699999</td><td>2017-02-10 14:04:00</td><td>4</td><td>0</td><td>0</td><td>7026</td><td>WXPOD 7026, AF</td><td>FM-15</td><td>99999</td><td>V020</td><td>⋯</td><td>99</td><td>9</td><td>10318</td><td>1</td><td>99999</td><td>9</td><td>NA</td><td>NA</td><td>MET104MOBOB0 METAR 7026 //008 000000 101404Z AUTO VRB01KT 9999 CLR 02/M08 A3047 RMK CDP03661 CLR CDP03605 CLR=               </td><td></td></tr>\n",
       "\t<tr><td>702699999</td><td>2017-02-10 14:14:00</td><td>4</td><td>0</td><td>0</td><td>7026</td><td>WXPOD 7026, AF</td><td>FM-15</td><td>99999</td><td>V020</td><td>⋯</td><td>99</td><td>9</td><td>10318</td><td>1</td><td>99999</td><td>9</td><td>NA</td><td>NA</td><td>MET104MOBOB0 METAR 7026 //008 000000 101414Z AUTO VRB01KT 9999 CLR 02/M08 A3047 RMK CDP03605 CLR CDP03661 CLR=               </td><td></td></tr>\n",
       "\t<tr><td>702699999</td><td>2017-02-10 14:19:00</td><td>4</td><td>0</td><td>0</td><td>7026</td><td>WXPOD 7026, AF</td><td>FM-15</td><td>99999</td><td>V020</td><td>⋯</td><td>99</td><td>9</td><td>10318</td><td>1</td><td>99999</td><td>9</td><td>NA</td><td>NA</td><td>MET104MOBOB0 METAR 7026 //008 000000 101419Z AUTO VRB02KT 9999 CLR 03/M08 A3047 RMK CDP03605 CLR CDP03661 CLR=               </td><td></td></tr>\n",
       "\t<tr><td>702699999</td><td>2017-02-10 14:24:00</td><td>4</td><td>0</td><td>0</td><td>7026</td><td>WXPOD 7026, AF</td><td>FM-15</td><td>99999</td><td>V020</td><td>⋯</td><td>99</td><td>9</td><td>10318</td><td>1</td><td>99999</td><td>9</td><td>NA</td><td>NA</td><td>MET104MOBOB0 METAR 7026 //008 000000 101424Z AUTO VRB03KT 9999 CLR 03/M09 A3047 RMK CDP03605 CLR CDP03661 CLR=               </td><td></td></tr>\n",
       "\t<tr><td>702699999</td><td>2017-02-10 14:29:00</td><td>4</td><td>0</td><td>0</td><td>7026</td><td>WXPOD 7026, AF</td><td>FM-15</td><td>99999</td><td>V020</td><td>⋯</td><td>99</td><td>9</td><td>10318</td><td>1</td><td>99999</td><td>9</td><td>NA</td><td>NA</td><td>MET104MOBOB0 METAR 7026 //008 000000 101429Z AUTO 03001KT 9999 CLR 03/M08 A3047 RMK CDP03605 CLR CDP03661 CLR=               </td><td></td></tr>\n",
       "\t<tr><td>702699999</td><td>2017-02-10 14:34:00</td><td>4</td><td>0</td><td>0</td><td>7026</td><td>WXPOD 7026, AF</td><td>FM-15</td><td>99999</td><td>V020</td><td>⋯</td><td>99</td><td>9</td><td>10318</td><td>1</td><td>99999</td><td>9</td><td>NA</td><td>NA</td><td>MET091MOBOB0 METAR 7026 //008 000000 101434Z AUTO VRB02KT 9999 CLR 03/M08 A3047 RMK CDP03661 CLR=                            </td><td></td></tr>\n",
       "\t<tr><td>702699999</td><td>2017-02-10 14:39:00</td><td>4</td><td>0</td><td>0</td><td>7026</td><td>WXPOD 7026, AF</td><td>FM-15</td><td>99999</td><td>V020</td><td>⋯</td><td>99</td><td>9</td><td>10318</td><td>1</td><td>99999</td><td>9</td><td>NA</td><td>NA</td><td>MET104MOBOB0 METAR 7026 //008 000000 101439Z AUTO 26001KT 9999 CLR 03/M08 A3047 RMK CDP03661 CLR CDP03605 CLR=               </td><td></td></tr>\n",
       "\t<tr><td>702699999</td><td>2017-02-10 14:44:00</td><td>4</td><td>0</td><td>0</td><td>7026</td><td>WXPOD 7026, AF</td><td>FM-15</td><td>99999</td><td>V020</td><td>⋯</td><td>99</td><td>9</td><td>10318</td><td>1</td><td>99999</td><td>9</td><td>NA</td><td>NA</td><td>MET104MOBOB0 METAR 7026 //008 000000 101444Z AUTO 00000KT 9999 CLR 04/M08 A3047 RMK CDP03605 CLR CDP03661 CLR=               </td><td></td></tr>\n",
       "\t<tr><td>702699999</td><td>2017-02-10 14:49:00</td><td>4</td><td>0</td><td>0</td><td>7026</td><td>WXPOD 7026, AF</td><td>FM-15</td><td>99999</td><td>V020</td><td>⋯</td><td>99</td><td>9</td><td>10318</td><td>1</td><td>99999</td><td>9</td><td>NA</td><td>NA</td><td>MET119MOBOB0 METAR 7026 //008 000000 101449Z AUTO 11001KT 9999 CLR 04/M08 A3047 RMK CDP03605 CLR CDP03661 FEW056 CLD AVG 056=</td><td></td></tr>\n",
       "\t<tr><td>702699999</td><td>2017-02-10 14:54:00</td><td>4</td><td>0</td><td>0</td><td>7026</td><td>WXPOD 7026, AF</td><td>FM-15</td><td>99999</td><td>V020</td><td>⋯</td><td>99</td><td>9</td><td>10318</td><td>1</td><td>99999</td><td>9</td><td>NA</td><td>NA</td><td>MET104MOBOB0 METAR 7026 //008 000000 101454Z AUTO VRB01KT 9999 CLR 04/M09 A3047 RMK CDP03661 CLR CDP03605 CLR=               </td><td></td></tr>\n",
       "\t<tr><td>702699999</td><td>2017-02-10 14:59:00</td><td>4</td><td>0</td><td>0</td><td>7026</td><td>WXPOD 7026, AF</td><td>FM-15</td><td>99999</td><td>V020</td><td>⋯</td><td>99</td><td>9</td><td>10318</td><td>1</td><td>99999</td><td>9</td><td>NA</td><td>NA</td><td>MET104MOBOB0 METAR 7026 //008 000000 101459Z AUTO 00000KT 9999 CLR 04/M09 A3047 RMK CDP03661 CLR CDP03605 CLR=               </td><td></td></tr>\n",
       "\t<tr><td>702699999</td><td>2017-02-10 15:04:00</td><td>4</td><td>0</td><td>0</td><td>7026</td><td>WXPOD 7026, AF</td><td>FM-15</td><td>99999</td><td>V020</td><td>⋯</td><td>99</td><td>9</td><td>10318</td><td>1</td><td>99999</td><td>9</td><td>NA</td><td>NA</td><td>MET104MOBOB0 METAR 7026 //008 000000 101504Z AUTO VRB02KT 9999 CLR 05/M08 A3047 RMK CDP03661 CLR CDP03605 CLR=               </td><td></td></tr>\n",
       "\t<tr><td>702699999</td><td>2017-02-10 15:09:00</td><td>4</td><td>0</td><td>0</td><td>7026</td><td>WXPOD 7026, AF</td><td>FM-15</td><td>99999</td><td>V020</td><td>⋯</td><td>99</td><td>9</td><td>10315</td><td>1</td><td>99999</td><td>9</td><td>NA</td><td>NA</td><td>MET104MOBOB0 METAR 7026 //008 000000 101509Z AUTO 01001KT 9999 CLR 05/M08 A3046 RMK CDP03605 CLR CDP03661 CLR=               </td><td></td></tr>\n",
       "\t<tr><td>702699999</td><td>2017-02-10 15:14:00</td><td>4</td><td>0</td><td>0</td><td>7026</td><td>WXPOD 7026, AF</td><td>FM-15</td><td>99999</td><td>V020</td><td>⋯</td><td>99</td><td>9</td><td>10315</td><td>1</td><td>99999</td><td>9</td><td>NA</td><td>NA</td><td>MET104MOBOB0 METAR 7026 //008 000000 101514Z AUTO 35001KT 9999 CLR 06/M09 A3046 RMK CDP03605 CLR CDP03661 CLR=               </td><td></td></tr>\n",
       "\t<tr><td>702699999</td><td>2017-02-10 15:19:00</td><td>4</td><td>0</td><td>0</td><td>7026</td><td>WXPOD 7026, AF</td><td>FM-15</td><td>99999</td><td>V020</td><td>⋯</td><td>99</td><td>9</td><td>10315</td><td>1</td><td>99999</td><td>9</td><td>NA</td><td>NA</td><td>MET104MOBOB0 METAR 7026 //008 000000 101519Z AUTO 30003KT 9999 CLR 05/M09 A3046 RMK CDP03661 CLR CDP03605 CLR=               </td><td></td></tr>\n",
       "\t<tr><td>702699999</td><td>2017-02-10 15:24:00</td><td>4</td><td>0</td><td>0</td><td>7026</td><td>WXPOD 7026, AF</td><td>FM-15</td><td>99999</td><td>V020</td><td>⋯</td><td>99</td><td>9</td><td>10315</td><td>1</td><td>99999</td><td>9</td><td>NA</td><td>NA</td><td>MET104MOBOB0 METAR 7026 //008 000000 101524Z AUTO VRB03KT 9999 CLR 06/M09 A3046 RMK CDP03605 CLR CDP03661 CLR=               </td><td></td></tr>\n",
       "\t<tr><td>702699999</td><td>2017-02-10 15:29:00</td><td>4</td><td>0</td><td>0</td><td>7026</td><td>WXPOD 7026, AF</td><td>FM-15</td><td>99999</td><td>V020</td><td>⋯</td><td>99</td><td>9</td><td>10315</td><td>1</td><td>99999</td><td>9</td><td>NA</td><td>NA</td><td>MET104MOBOB0 METAR 7026 //008 000000 101529Z AUTO VRB03KT 9999 CLR 05/M09 A3046 RMK CDP03661 CLR CDP03605 CLR=               </td><td></td></tr>\n",
       "\t<tr><td>702699999</td><td>2017-02-10 15:34:00</td><td>4</td><td>0</td><td>0</td><td>7026</td><td>WXPOD 7026, AF</td><td>FM-15</td><td>99999</td><td>V020</td><td>⋯</td><td>99</td><td>9</td><td>10315</td><td>1</td><td>99999</td><td>9</td><td>NA</td><td>NA</td><td>MET104MOBOB0 METAR 7026 //008 000000 101534Z AUTO 30003KT 9999 CLR 05/M09 A3046 RMK CDP03605 CLR CDP03661 CLR=               </td><td></td></tr>\n",
       "\t<tr><td>702699999</td><td>2017-02-10 15:39:00</td><td>4</td><td>0</td><td>0</td><td>7026</td><td>WXPOD 7026, AF</td><td>FM-15</td><td>99999</td><td>V020</td><td>⋯</td><td>99</td><td>9</td><td>10315</td><td>1</td><td>99999</td><td>9</td><td>NA</td><td>NA</td><td>MET104MOBOB0 METAR 7026 //008 000000 101539Z AUTO VRB04KT 9999 CLR 06/M09 A3046 RMK CDP03605 CLR CDP03661 CLR=               </td><td></td></tr>\n",
       "\t<tr><td>702699999</td><td>2017-02-10 15:44:00</td><td>4</td><td>0</td><td>0</td><td>7026</td><td>WXPOD 7026, AF</td><td>FM-15</td><td>99999</td><td>V020</td><td>⋯</td><td>99</td><td>9</td><td>10315</td><td>1</td><td>99999</td><td>9</td><td>NA</td><td>NA</td><td>MET104MOBOB0 METAR 7026 //008 000000 101544Z AUTO VRB01KT 9999 CLR 06/M09 A3046 RMK CDP03661 CLR CDP03605 CLR=               </td><td></td></tr>\n",
       "\t<tr><td>702699999</td><td>2017-02-10 15:49:00</td><td>4</td><td>0</td><td>0</td><td>7026</td><td>WXPOD 7026, AF</td><td>FM-15</td><td>99999</td><td>V020</td><td>⋯</td><td>99</td><td>9</td><td>10312</td><td>1</td><td>99999</td><td>9</td><td>NA</td><td>NA</td><td>MET104MOBOB0 METAR 7026 //008 000000 101549Z AUTO VRB03KT 9999 CLR 06/M09 A3045 RMK CDP03605 CLR CDP03661 CLR=               </td><td></td></tr>\n",
       "\t<tr><td>702699999</td><td>2017-02-10 15:54:00</td><td>4</td><td>0</td><td>0</td><td>7026</td><td>WXPOD 7026, AF</td><td>FM-15</td><td>99999</td><td>V020</td><td>⋯</td><td>99</td><td>9</td><td>10312</td><td>1</td><td>99999</td><td>9</td><td>NA</td><td>NA</td><td>MET104MOBOB0 METAR 7026 //008 000000 101554Z AUTO VRB02KT 9999 CLR 06/M09 A3045 RMK CDP03661 CLR CDP03605 CLR=               </td><td></td></tr>\n",
       "\t<tr><td>702699999</td><td>2017-02-10 15:59:00</td><td>4</td><td>0</td><td>0</td><td>7026</td><td>WXPOD 7026, AF</td><td>FM-15</td><td>99999</td><td>V020</td><td>⋯</td><td>99</td><td>9</td><td>10312</td><td>1</td><td>99999</td><td>9</td><td>NA</td><td>NA</td><td>MET104MOBOB0 METAR 7026 //008 000000 101559Z AUTO 32004KT 9999 CLR 06/M09 A3045 RMK CDP03605 CLR CDP03661 CLR=               </td><td></td></tr>\n",
       "\t<tr><td>702699999</td><td>2017-02-10 16:04:00</td><td>4</td><td>0</td><td>0</td><td>7026</td><td>WXPOD 7026, AF</td><td>FM-15</td><td>99999</td><td>V020</td><td>⋯</td><td>99</td><td>9</td><td>10312</td><td>1</td><td>99999</td><td>9</td><td>NA</td><td>NA</td><td>MET104MOBOB0 METAR 7026 //008 000000 101604Z AUTO VRB05KT 9999 CLR 06/M09 A3045 RMK CDP03661 CLR CDP03605 CLR=               </td><td></td></tr>\n",
       "\t<tr><td>702699999</td><td>2017-02-10 16:09:00</td><td>4</td><td>0</td><td>0</td><td>7026</td><td>WXPOD 7026, AF</td><td>FM-15</td><td>99999</td><td>V020</td><td>⋯</td><td>99</td><td>9</td><td>10312</td><td>1</td><td>99999</td><td>9</td><td>NA</td><td>NA</td><td>MET104MOBOB0 METAR 7026 //008 000000 101609Z AUTO 30005KT 9999 CLR 07/M08 A3045 RMK CDP03605 CLR CDP03661 CLR=               </td><td></td></tr>\n",
       "\t<tr><td>702699999</td><td>2017-02-10 16:14:00</td><td>4</td><td>0</td><td>0</td><td>7026</td><td>WXPOD 7026, AF</td><td>FM-15</td><td>99999</td><td>V020</td><td>⋯</td><td>99</td><td>9</td><td>10308</td><td>1</td><td>99999</td><td>9</td><td>NA</td><td>NA</td><td>MET104MOBOB0 METAR 7026 //008 000000 101614Z AUTO 28002KT 9999 CLR 06/M08 A3044 RMK CDP03661 CLR CDP03605 CLR=               </td><td></td></tr>\n",
       "\t<tr><td>702699999</td><td>2017-02-10 16:19:00</td><td>4</td><td>0</td><td>0</td><td>7026</td><td>WXPOD 7026, AF</td><td>FM-15</td><td>99999</td><td>V020</td><td>⋯</td><td>99</td><td>9</td><td>10308</td><td>1</td><td>99999</td><td>9</td><td>NA</td><td>NA</td><td>MET104MOBOB0 METAR 7026 //008 000000 101619Z AUTO VRB02KT 9999 CLR 06/M09 A3044 RMK CDP03605 CLR CDP03661 CLR=               </td><td></td></tr>\n",
       "\t<tr><td>702699999</td><td>2017-02-10 16:24:00</td><td>4</td><td>0</td><td>0</td><td>7026</td><td>WXPOD 7026, AF</td><td>FM-15</td><td>99999</td><td>V020</td><td>⋯</td><td>99</td><td>9</td><td>10308</td><td>1</td><td>99999</td><td>9</td><td>NA</td><td>NA</td><td>MET104MOBOB0 METAR 7026 //008 000000 101624Z AUTO VRB01KT 9999 CLR 08/M08 A3044 RMK CDP03661 CLR CDP03605 CLR=               </td><td></td></tr>\n",
       "\t<tr><td>702699999</td><td>2017-02-10 16:29:00</td><td>4</td><td>0</td><td>0</td><td>7026</td><td>WXPOD 7026, AF</td><td>FM-15</td><td>99999</td><td>V020</td><td>⋯</td><td>99</td><td>9</td><td>10308</td><td>1</td><td>99999</td><td>9</td><td>NA</td><td>NA</td><td>MET104MOBOB0 METAR 7026 //008 000000 101629Z AUTO VRB03KT 9999 CLR 07/M08 A3044 RMK CDP03605 CLR CDP03661 CLR=               </td><td></td></tr>\n",
       "\t<tr><td>702699999</td><td>2017-02-10 16:34:00</td><td>4</td><td>0</td><td>0</td><td>7026</td><td>WXPOD 7026, AF</td><td>FM-15</td><td>99999</td><td>V020</td><td>⋯</td><td>99</td><td>9</td><td>10305</td><td>1</td><td>99999</td><td>9</td><td>NA</td><td>NA</td><td>MET104MOBOB0 METAR 7026 //008 000000 101634Z AUTO VRB03KT 9999 CLR 08/M07 A3043 RMK CDP03661 CLR CDP03605 CLR=               </td><td></td></tr>\n",
       "\t<tr><td>⋮</td><td>⋮</td><td>⋮</td><td>⋮</td><td>⋮</td><td>⋮</td><td>⋮</td><td>⋮</td><td>⋮</td><td>⋮</td><td>⋱</td><td>⋮</td><td>⋮</td><td>⋮</td><td>⋮</td><td>⋮</td><td>⋮</td><td>⋮</td><td>⋮</td><td>⋮</td><td>⋮</td></tr>\n",
       "\t<tr><td>702699999</td><td>2017-08-21 22:59:00</td><td>4</td><td>0</td><td>0</td><td>7026</td><td>WXPOD 7026, AF</td><td>FM-15</td><td>99999</td><td>V020</td><td>⋯</td><td>99</td><td>9</td><td>10064</td><td>1</td><td>99999</td><td>9</td><td>NA</td><td>NA</td><td>MET090MOBOB3 METAR 7026 //131 341707 212259Z AUTO 19001KT 9999 CLR 23/20 A2972 RMK CDP03660 CLR=                  </td><td></td></tr>\n",
       "\t<tr><td>702699999</td><td>2017-08-21 23:29:00</td><td>4</td><td>0</td><td>0</td><td>7026</td><td>WXPOD 7026, AF</td><td>FM-15</td><td>99999</td><td>V020</td><td>⋯</td><td>99</td><td>9</td><td>10064</td><td>1</td><td>99999</td><td>9</td><td>NA</td><td>NA</td><td>MET090MOBOB3 METAR 7026 //131 341707 212329Z AUTO 21001KT 9999 CLR 23/19 A2972 RMK CDP03660 CLR=                  </td><td></td></tr>\n",
       "\t<tr><td>702699999</td><td>2017-08-21 23:59:00</td><td>4</td><td>0</td><td>0</td><td>7026</td><td>WXPOD 7026, AF</td><td>FM-15</td><td>99999</td><td>V020</td><td>⋯</td><td>99</td><td>9</td><td>10064</td><td>1</td><td>99999</td><td>9</td><td>NA</td><td>NA</td><td>MET090MOBOB3 METAR 7026 //131 341707 212359Z AUTO 18001KT //// CLR 23/18 A2972 RMK CDP03660 CLR=                  </td><td></td></tr>\n",
       "\t<tr><td>702699999</td><td>2017-08-22 00:29:00</td><td>4</td><td>0</td><td>0</td><td>7026</td><td>WXPOD 7026, AF</td><td>FM-15</td><td>99999</td><td>V020</td><td>⋯</td><td>99</td><td>9</td><td>10064</td><td>1</td><td>99999</td><td>9</td><td>NA</td><td>NA</td><td>MET090MOBOB3 METAR 7026 //131 341707 220029Z AUTO 00000KT //// CLR 23/19 A2972 RMK CDP03660 CLR=                  </td><td></td></tr>\n",
       "\t<tr><td>702699999</td><td>2017-08-22 00:59:00</td><td>4</td><td>0</td><td>0</td><td>7026</td><td>WXPOD 7026, AF</td><td>FM-15</td><td>99999</td><td>V020</td><td>⋯</td><td>99</td><td>9</td><td>10068</td><td>1</td><td>99999</td><td>9</td><td>NA</td><td>NA</td><td>MET090MOBOB3 METAR 7026 //131 341707 220059Z AUTO 00000KT 9999 CLR 22/18 A2973 RMK CDP03660 CLR=                  </td><td></td></tr>\n",
       "\t<tr><td>702699999</td><td>2017-08-22 01:29:00</td><td>4</td><td>0</td><td>0</td><td>7026</td><td>WXPOD 7026, AF</td><td>FM-15</td><td>99999</td><td>V020</td><td>⋯</td><td>99</td><td>9</td><td>10071</td><td>1</td><td>99999</td><td>9</td><td>NA</td><td>NA</td><td>MET090MOBOB3 METAR 7026 //131 341707 220129Z AUTO 23001KT //// CLR 23/18 A2974 RMK CDP03660 CLR=                  </td><td></td></tr>\n",
       "\t<tr><td>702699999</td><td>2017-08-22 01:59:00</td><td>4</td><td>0</td><td>0</td><td>7026</td><td>WXPOD 7026, AF</td><td>FM-15</td><td>99999</td><td>V020</td><td>⋯</td><td>99</td><td>9</td><td>10074</td><td>1</td><td>99999</td><td>9</td><td>NA</td><td>NA</td><td>MET090MOBOB3 METAR 7026 //131 341707 220159Z AUTO 23001KT 9999 CLR 24/18 A2975 RMK CDP03660 CLR=                  </td><td></td></tr>\n",
       "\t<tr><td>702699999</td><td>2017-08-22 02:29:00</td><td>4</td><td>0</td><td>0</td><td>7026</td><td>WXPOD 7026, AF</td><td>FM-15</td><td>99999</td><td>V020</td><td>⋯</td><td>99</td><td>9</td><td>10074</td><td>1</td><td>99999</td><td>9</td><td>NA</td><td>NA</td><td>MET090MOBOB3 METAR 7026 //131 341707 220229Z AUTO 22001KT 9999 CLR 26/20 A2975 RMK CDP03660 CLR=                  </td><td></td></tr>\n",
       "\t<tr><td>702699999</td><td>2017-08-22 02:59:00</td><td>4</td><td>0</td><td>0</td><td>7026</td><td>WXPOD 7026, AF</td><td>FM-15</td><td>99999</td><td>V020</td><td>⋯</td><td>99</td><td>9</td><td>10078</td><td>1</td><td>99999</td><td>9</td><td>NA</td><td>NA</td><td>MET090MOBOB3 METAR 7026 //131 341707 220259Z AUTO 02001KT //// CLR 27/19 A2976 RMK CDP03660 CLR=                  </td><td></td></tr>\n",
       "\t<tr><td>702699999</td><td>2017-08-22 03:29:00</td><td>4</td><td>0</td><td>0</td><td>7026</td><td>WXPOD 7026, AF</td><td>FM-15</td><td>99999</td><td>V020</td><td>⋯</td><td>99</td><td>9</td><td>10078</td><td>1</td><td>99999</td><td>9</td><td>NA</td><td>NA</td><td>MET108MOBOB3 METAR 7026 //131 341707 220329Z AUTO VRB01KT 9999 SCT017 28/21 A2976 RMK CDP03660 SCT017 CLD AVG 018=</td><td></td></tr>\n",
       "\t<tr><td>702699999</td><td>2017-08-22 03:59:00</td><td>4</td><td>0</td><td>0</td><td>7026</td><td>WXPOD 7026, AF</td><td>FM-15</td><td>99999</td><td>V020</td><td>⋯</td><td>99</td><td>9</td><td>10081</td><td>1</td><td>99999</td><td>9</td><td>NA</td><td>NA</td><td>MET090MOBOB3 METAR 7026 //131 341707 220359Z AUTO 03003KT 9999 CLR 27/21 A2977 RMK CDP03660 CLR=                  </td><td></td></tr>\n",
       "\t<tr><td>702699999</td><td>2017-08-22 04:29:00</td><td>4</td><td>0</td><td>0</td><td>7026</td><td>WXPOD 7026, AF</td><td>FM-15</td><td>99999</td><td>V020</td><td>⋯</td><td>99</td><td>9</td><td>10081</td><td>1</td><td>99999</td><td>9</td><td>NA</td><td>NA</td><td>MET090MOBOB3 METAR 7026 //131 341707 220429Z AUTO VRB01KT 9999 CLR 28/20 A2977 RMK CDP03660 CLR=                  </td><td></td></tr>\n",
       "\t<tr><td>702699999</td><td>2017-08-22 04:59:00</td><td>4</td><td>0</td><td>0</td><td>7026</td><td>WXPOD 7026, AF</td><td>FM-15</td><td>99999</td><td>V020</td><td>⋯</td><td>99</td><td>9</td><td>10081</td><td>1</td><td>99999</td><td>9</td><td>NA</td><td>NA</td><td>MET090MOBOB3 METAR 7026 //131 341707 220459Z AUTO VRB02KT 8000 CLR 27/21 A2977 RMK CDP03660 CLR=                  </td><td></td></tr>\n",
       "\t<tr><td>702699999</td><td>2017-08-22 05:29:00</td><td>4</td><td>0</td><td>0</td><td>7026</td><td>WXPOD 7026, AF</td><td>FM-15</td><td>99999</td><td>V020</td><td>⋯</td><td>99</td><td>9</td><td>10081</td><td>1</td><td>99999</td><td>9</td><td>NA</td><td>NA</td><td>MET090MOBOB3 METAR 7026 //131 341707 220529Z AUTO VRB03KT //// CLR 27/20 A2977 RMK CDP03660 CLR=                  </td><td></td></tr>\n",
       "\t<tr><td>702699999</td><td>2017-08-22 05:59:00</td><td>4</td><td>0</td><td>0</td><td>7026</td><td>WXPOD 7026, AF</td><td>FM-15</td><td>99999</td><td>V020</td><td>⋯</td><td>99</td><td>9</td><td>10078</td><td>1</td><td>99999</td><td>9</td><td>NA</td><td>NA</td><td>MET108MOBOB3 METAR 7026 //131 341707 220559Z AUTO 03005KT 9999 FEW024 29/22 A2976 RMK CDP03660 FEW024 CLD AVG 024=</td><td></td></tr>\n",
       "\t<tr><td>702699999</td><td>2017-08-22 06:29:00</td><td>4</td><td>0</td><td>0</td><td>7026</td><td>WXPOD 7026, AF</td><td>FM-15</td><td>99999</td><td>V020</td><td>⋯</td><td>99</td><td>9</td><td>10074</td><td>1</td><td>99999</td><td>9</td><td>NA</td><td>NA</td><td>MET090MOBOB3 METAR 7026 //131 341707 220629Z AUTO VRB03KT 9999 CLR 29/20 A2975 RMK CDP03660 CLR=                  </td><td></td></tr>\n",
       "\t<tr><td>702699999</td><td>2017-08-22 06:59:00</td><td>4</td><td>0</td><td>0</td><td>7026</td><td>WXPOD 7026, AF</td><td>FM-15</td><td>99999</td><td>V020</td><td>⋯</td><td>99</td><td>9</td><td>10071</td><td>1</td><td>99999</td><td>9</td><td>NA</td><td>NA</td><td>MET090MOBOB3 METAR 7026 //131 341707 220659Z AUTO 07004KT 9000 CLR 29/20 A2974 RMK CDP03660 CLR=                  </td><td></td></tr>\n",
       "\t<tr><td>702699999</td><td>2017-08-22 07:29:00</td><td>4</td><td>0</td><td>0</td><td>7026</td><td>WXPOD 7026, AF</td><td>FM-15</td><td>99999</td><td>V020</td><td>⋯</td><td>99</td><td>9</td><td>10068</td><td>1</td><td>99999</td><td>9</td><td>NA</td><td>NA</td><td>MET090MOBOB3 METAR 7026 //131 341707 220729Z AUTO 02005KT 9999 CLR 30/20 A2973 RMK CDP03660 CLR=                  </td><td></td></tr>\n",
       "\t<tr><td>702699999</td><td>2017-08-22 07:59:00</td><td>4</td><td>0</td><td>0</td><td>7026</td><td>WXPOD 7026, AF</td><td>FM-15</td><td>99999</td><td>V020</td><td>⋯</td><td>99</td><td>9</td><td>10064</td><td>1</td><td>99999</td><td>9</td><td>NA</td><td>NA</td><td>MET090MOBOB3 METAR 7026 //131 341707 220759Z AUTO VRB04KT 9999 CLR 30/19 A2972 RMK CDP03660 CLR=                  </td><td></td></tr>\n",
       "\t<tr><td>702699999</td><td>2017-08-22 08:29:00</td><td>4</td><td>0</td><td>0</td><td>7026</td><td>WXPOD 7026, AF</td><td>FM-15</td><td>99999</td><td>V020</td><td>⋯</td><td>99</td><td>9</td><td>10061</td><td>1</td><td>99999</td><td>9</td><td>NA</td><td>NA</td><td>MET090MOBOB3 METAR 7026 //131 341707 220829Z AUTO VRB03KT 9000 CLR 30/19 A2971 RMK CDP03660 CLR=                  </td><td></td></tr>\n",
       "\t<tr><td>702699999</td><td>2017-08-22 08:59:00</td><td>4</td><td>0</td><td>0</td><td>7026</td><td>WXPOD 7026, AF</td><td>FM-15</td><td>99999</td><td>V020</td><td>⋯</td><td>99</td><td>9</td><td>10054</td><td>1</td><td>99999</td><td>9</td><td>NA</td><td>NA</td><td>MET090MOBOB3 METAR 7026 //131 341707 220859Z AUTO VRB01KT 9999 CLR 32/19 A2969 RMK CDP03660 CLR=                  </td><td></td></tr>\n",
       "\t<tr><td>702699999</td><td>2017-08-22 09:29:00</td><td>4</td><td>0</td><td>0</td><td>7026</td><td>WXPOD 7026, AF</td><td>FM-15</td><td>99999</td><td>V020</td><td>⋯</td><td>99</td><td>9</td><td>10051</td><td>1</td><td>99999</td><td>9</td><td>NA</td><td>NA</td><td>MET108MOBOB3 METAR 7026 //131 341707 220929Z AUTO 02003KT 9999 FEW053 31/18 A2968 RMK CDP03660 FEW053 CLD AVG 053=</td><td></td></tr>\n",
       "\t<tr><td>702699999</td><td>2017-08-22 09:59:00</td><td>4</td><td>0</td><td>0</td><td>7026</td><td>WXPOD 7026, AF</td><td>FM-15</td><td>99999</td><td>V020</td><td>⋯</td><td>99</td><td>9</td><td>10044</td><td>1</td><td>99999</td><td>9</td><td>NA</td><td>NA</td><td>MET090MOBOB3 METAR 7026 //131 341707 220959Z AUTO VRB03KT 9999 CLR 31/19 A2966 RMK CDP03660 CLR=                  </td><td></td></tr>\n",
       "\t<tr><td>702699999</td><td>2017-08-22 10:29:00</td><td>4</td><td>0</td><td>0</td><td>7026</td><td>WXPOD 7026, AF</td><td>FM-15</td><td>99999</td><td>V020</td><td>⋯</td><td>99</td><td>9</td><td>10037</td><td>1</td><td>99999</td><td>9</td><td>NA</td><td>NA</td><td>MET090MOBOB3 METAR 7026 //131 341707 221029Z AUTO 03004KT 9999 CLR 30/19 A2964 RMK CDP03660 CLR=                  </td><td></td></tr>\n",
       "\t<tr><td>702699999</td><td>2017-08-22 10:59:00</td><td>4</td><td>0</td><td>0</td><td>7026</td><td>WXPOD 7026, AF</td><td>FM-15</td><td>99999</td><td>V020</td><td>⋯</td><td>99</td><td>9</td><td>10034</td><td>1</td><td>99999</td><td>9</td><td>NA</td><td>NA</td><td>MET090MOBOB3 METAR 7026 //131 341707 221059Z AUTO VRB04KT 9999 CLR 31/19 A2963 RMK CDP03660 CLR=                  </td><td></td></tr>\n",
       "\t<tr><td>702699999</td><td>2017-08-22 11:29:00</td><td>4</td><td>0</td><td>0</td><td>7026</td><td>WXPOD 7026, AF</td><td>FM-15</td><td>99999</td><td>V020</td><td>⋯</td><td>99</td><td>9</td><td>10030</td><td>1</td><td>99999</td><td>9</td><td>NA</td><td>NA</td><td>MET090MOBOB3 METAR 7026 //131 341707 221129Z AUTO 01003KT //// CLR 31/19 A2962 RMK CDP03660 CLR=                  </td><td></td></tr>\n",
       "\t<tr><td>702699999</td><td>2017-08-22 11:59:00</td><td>4</td><td>0</td><td>0</td><td>7026</td><td>WXPOD 7026, AF</td><td>FM-15</td><td>99999</td><td>V020</td><td>⋯</td><td>99</td><td>9</td><td>10030</td><td>1</td><td>99999</td><td>9</td><td>NA</td><td>NA</td><td>MET090MOBOB3 METAR 7026 //131 341707 221159Z AUTO VRB03KT 6000 CLR 31/19 A2962 RMK CDP03660 CLR=                  </td><td></td></tr>\n",
       "\t<tr><td>702699999</td><td>2017-08-22 12:29:00</td><td>4</td><td>0</td><td>0</td><td>7026</td><td>WXPOD 7026, AF</td><td>FM-15</td><td>99999</td><td>V020</td><td>⋯</td><td>99</td><td>9</td><td>10030</td><td>1</td><td>99999</td><td>9</td><td>NA</td><td>NA</td><td>MET090MOBOB3 METAR 7026 //131 341707 221229Z AUTO 03004KT 4800 CLR 31/19 A2962 RMK CDP03660 CLR=                  </td><td></td></tr>\n",
       "\t<tr><td>702699999</td><td>2017-08-22 12:59:00</td><td>4</td><td>0</td><td>0</td><td>7026</td><td>WXPOD 7026, AF</td><td>FM-15</td><td>99999</td><td>V020</td><td>⋯</td><td>99</td><td>9</td><td>10030</td><td>1</td><td>99999</td><td>9</td><td>NA</td><td>NA</td><td>MET090MOBOB3 METAR 7026 //131 341707 221259Z AUTO 03003KT 6000 CLR 29/20 A2962 RMK CDP03660 CLR=                  </td><td></td></tr>\n",
       "\t<tr><td>702699999</td><td>2017-08-22 13:29:00</td><td>4</td><td>0</td><td>0</td><td>7026</td><td>WXPOD 7026, AF</td><td>FM-15</td><td>99999</td><td>V020</td><td>⋯</td><td>99</td><td>9</td><td>10034</td><td>1</td><td>99999</td><td>9</td><td>NA</td><td>NA</td><td>MET090MOBOB3 METAR 7026 //131 341707 221329Z AUTO 01002KT //// CLR 28/20 A2963 RMK CDP03660 CLR=                  </td><td></td></tr>\n",
       "</tbody>\n",
       "</table>\n"
      ],
      "text/latex": [
       "A tibble: 6843 × 68\n",
       "\\begin{tabular}{lllllllllllllllllllll}\n",
       " station & date & source & latitude & longitude & elevation & name & report\\_type & call\\_sign & quality\\_control & ⋯ & high\\_cloud\\_genus & high\\_cloud\\_genus\\_quality & altimeter\\_setting\\_rate & altimeter\\_quality\\_code & station\\_pressure\\_rate & station\\_pressure\\_quality\\_code & speed\\_rate & quality\\_code & rem & eqd\\\\\n",
       " <int> & <dttm> & <int> & <dbl> & <dbl> & <dbl> & <chr> & <chr> & <int> & <chr> & ⋯ & <chr> & <chr> & <chr> & <chr> & <chr> & <chr> & <chr> & <chr> & <chr> & <chr>\\\\\n",
       "\\hline\n",
       "\t 702699999 & 2017-02-10 14:04:00 & 4 & 0 & 0 & 7026 & WXPOD 7026, AF & FM-15 & 99999 & V020 & ⋯ & 99 & 9 & 10318 & 1 & 99999 & 9 & NA & NA & MET104MOBOB0 METAR 7026 //008 000000 101404Z AUTO VRB01KT 9999 CLR 02/M08 A3047 RMK CDP03661 CLR CDP03605 CLR=                & \\\\\n",
       "\t 702699999 & 2017-02-10 14:14:00 & 4 & 0 & 0 & 7026 & WXPOD 7026, AF & FM-15 & 99999 & V020 & ⋯ & 99 & 9 & 10318 & 1 & 99999 & 9 & NA & NA & MET104MOBOB0 METAR 7026 //008 000000 101414Z AUTO VRB01KT 9999 CLR 02/M08 A3047 RMK CDP03605 CLR CDP03661 CLR=                & \\\\\n",
       "\t 702699999 & 2017-02-10 14:19:00 & 4 & 0 & 0 & 7026 & WXPOD 7026, AF & FM-15 & 99999 & V020 & ⋯ & 99 & 9 & 10318 & 1 & 99999 & 9 & NA & NA & MET104MOBOB0 METAR 7026 //008 000000 101419Z AUTO VRB02KT 9999 CLR 03/M08 A3047 RMK CDP03605 CLR CDP03661 CLR=                & \\\\\n",
       "\t 702699999 & 2017-02-10 14:24:00 & 4 & 0 & 0 & 7026 & WXPOD 7026, AF & FM-15 & 99999 & V020 & ⋯ & 99 & 9 & 10318 & 1 & 99999 & 9 & NA & NA & MET104MOBOB0 METAR 7026 //008 000000 101424Z AUTO VRB03KT 9999 CLR 03/M09 A3047 RMK CDP03605 CLR CDP03661 CLR=                & \\\\\n",
       "\t 702699999 & 2017-02-10 14:29:00 & 4 & 0 & 0 & 7026 & WXPOD 7026, AF & FM-15 & 99999 & V020 & ⋯ & 99 & 9 & 10318 & 1 & 99999 & 9 & NA & NA & MET104MOBOB0 METAR 7026 //008 000000 101429Z AUTO 03001KT 9999 CLR 03/M08 A3047 RMK CDP03605 CLR CDP03661 CLR=                & \\\\\n",
       "\t 702699999 & 2017-02-10 14:34:00 & 4 & 0 & 0 & 7026 & WXPOD 7026, AF & FM-15 & 99999 & V020 & ⋯ & 99 & 9 & 10318 & 1 & 99999 & 9 & NA & NA & MET091MOBOB0 METAR 7026 //008 000000 101434Z AUTO VRB02KT 9999 CLR 03/M08 A3047 RMK CDP03661 CLR=                             & \\\\\n",
       "\t 702699999 & 2017-02-10 14:39:00 & 4 & 0 & 0 & 7026 & WXPOD 7026, AF & FM-15 & 99999 & V020 & ⋯ & 99 & 9 & 10318 & 1 & 99999 & 9 & NA & NA & MET104MOBOB0 METAR 7026 //008 000000 101439Z AUTO 26001KT 9999 CLR 03/M08 A3047 RMK CDP03661 CLR CDP03605 CLR=                & \\\\\n",
       "\t 702699999 & 2017-02-10 14:44:00 & 4 & 0 & 0 & 7026 & WXPOD 7026, AF & FM-15 & 99999 & V020 & ⋯ & 99 & 9 & 10318 & 1 & 99999 & 9 & NA & NA & MET104MOBOB0 METAR 7026 //008 000000 101444Z AUTO 00000KT 9999 CLR 04/M08 A3047 RMK CDP03605 CLR CDP03661 CLR=                & \\\\\n",
       "\t 702699999 & 2017-02-10 14:49:00 & 4 & 0 & 0 & 7026 & WXPOD 7026, AF & FM-15 & 99999 & V020 & ⋯ & 99 & 9 & 10318 & 1 & 99999 & 9 & NA & NA & MET119MOBOB0 METAR 7026 //008 000000 101449Z AUTO 11001KT 9999 CLR 04/M08 A3047 RMK CDP03605 CLR CDP03661 FEW056 CLD AVG 056= & \\\\\n",
       "\t 702699999 & 2017-02-10 14:54:00 & 4 & 0 & 0 & 7026 & WXPOD 7026, AF & FM-15 & 99999 & V020 & ⋯ & 99 & 9 & 10318 & 1 & 99999 & 9 & NA & NA & MET104MOBOB0 METAR 7026 //008 000000 101454Z AUTO VRB01KT 9999 CLR 04/M09 A3047 RMK CDP03661 CLR CDP03605 CLR=                & \\\\\n",
       "\t 702699999 & 2017-02-10 14:59:00 & 4 & 0 & 0 & 7026 & WXPOD 7026, AF & FM-15 & 99999 & V020 & ⋯ & 99 & 9 & 10318 & 1 & 99999 & 9 & NA & NA & MET104MOBOB0 METAR 7026 //008 000000 101459Z AUTO 00000KT 9999 CLR 04/M09 A3047 RMK CDP03661 CLR CDP03605 CLR=                & \\\\\n",
       "\t 702699999 & 2017-02-10 15:04:00 & 4 & 0 & 0 & 7026 & WXPOD 7026, AF & FM-15 & 99999 & V020 & ⋯ & 99 & 9 & 10318 & 1 & 99999 & 9 & NA & NA & MET104MOBOB0 METAR 7026 //008 000000 101504Z AUTO VRB02KT 9999 CLR 05/M08 A3047 RMK CDP03661 CLR CDP03605 CLR=                & \\\\\n",
       "\t 702699999 & 2017-02-10 15:09:00 & 4 & 0 & 0 & 7026 & WXPOD 7026, AF & FM-15 & 99999 & V020 & ⋯ & 99 & 9 & 10315 & 1 & 99999 & 9 & NA & NA & MET104MOBOB0 METAR 7026 //008 000000 101509Z AUTO 01001KT 9999 CLR 05/M08 A3046 RMK CDP03605 CLR CDP03661 CLR=                & \\\\\n",
       "\t 702699999 & 2017-02-10 15:14:00 & 4 & 0 & 0 & 7026 & WXPOD 7026, AF & FM-15 & 99999 & V020 & ⋯ & 99 & 9 & 10315 & 1 & 99999 & 9 & NA & NA & MET104MOBOB0 METAR 7026 //008 000000 101514Z AUTO 35001KT 9999 CLR 06/M09 A3046 RMK CDP03605 CLR CDP03661 CLR=                & \\\\\n",
       "\t 702699999 & 2017-02-10 15:19:00 & 4 & 0 & 0 & 7026 & WXPOD 7026, AF & FM-15 & 99999 & V020 & ⋯ & 99 & 9 & 10315 & 1 & 99999 & 9 & NA & NA & MET104MOBOB0 METAR 7026 //008 000000 101519Z AUTO 30003KT 9999 CLR 05/M09 A3046 RMK CDP03661 CLR CDP03605 CLR=                & \\\\\n",
       "\t 702699999 & 2017-02-10 15:24:00 & 4 & 0 & 0 & 7026 & WXPOD 7026, AF & FM-15 & 99999 & V020 & ⋯ & 99 & 9 & 10315 & 1 & 99999 & 9 & NA & NA & MET104MOBOB0 METAR 7026 //008 000000 101524Z AUTO VRB03KT 9999 CLR 06/M09 A3046 RMK CDP03605 CLR CDP03661 CLR=                & \\\\\n",
       "\t 702699999 & 2017-02-10 15:29:00 & 4 & 0 & 0 & 7026 & WXPOD 7026, AF & FM-15 & 99999 & V020 & ⋯ & 99 & 9 & 10315 & 1 & 99999 & 9 & NA & NA & MET104MOBOB0 METAR 7026 //008 000000 101529Z AUTO VRB03KT 9999 CLR 05/M09 A3046 RMK CDP03661 CLR CDP03605 CLR=                & \\\\\n",
       "\t 702699999 & 2017-02-10 15:34:00 & 4 & 0 & 0 & 7026 & WXPOD 7026, AF & FM-15 & 99999 & V020 & ⋯ & 99 & 9 & 10315 & 1 & 99999 & 9 & NA & NA & MET104MOBOB0 METAR 7026 //008 000000 101534Z AUTO 30003KT 9999 CLR 05/M09 A3046 RMK CDP03605 CLR CDP03661 CLR=                & \\\\\n",
       "\t 702699999 & 2017-02-10 15:39:00 & 4 & 0 & 0 & 7026 & WXPOD 7026, AF & FM-15 & 99999 & V020 & ⋯ & 99 & 9 & 10315 & 1 & 99999 & 9 & NA & NA & MET104MOBOB0 METAR 7026 //008 000000 101539Z AUTO VRB04KT 9999 CLR 06/M09 A3046 RMK CDP03605 CLR CDP03661 CLR=                & \\\\\n",
       "\t 702699999 & 2017-02-10 15:44:00 & 4 & 0 & 0 & 7026 & WXPOD 7026, AF & FM-15 & 99999 & V020 & ⋯ & 99 & 9 & 10315 & 1 & 99999 & 9 & NA & NA & MET104MOBOB0 METAR 7026 //008 000000 101544Z AUTO VRB01KT 9999 CLR 06/M09 A3046 RMK CDP03661 CLR CDP03605 CLR=                & \\\\\n",
       "\t 702699999 & 2017-02-10 15:49:00 & 4 & 0 & 0 & 7026 & WXPOD 7026, AF & FM-15 & 99999 & V020 & ⋯ & 99 & 9 & 10312 & 1 & 99999 & 9 & NA & NA & MET104MOBOB0 METAR 7026 //008 000000 101549Z AUTO VRB03KT 9999 CLR 06/M09 A3045 RMK CDP03605 CLR CDP03661 CLR=                & \\\\\n",
       "\t 702699999 & 2017-02-10 15:54:00 & 4 & 0 & 0 & 7026 & WXPOD 7026, AF & FM-15 & 99999 & V020 & ⋯ & 99 & 9 & 10312 & 1 & 99999 & 9 & NA & NA & MET104MOBOB0 METAR 7026 //008 000000 101554Z AUTO VRB02KT 9999 CLR 06/M09 A3045 RMK CDP03661 CLR CDP03605 CLR=                & \\\\\n",
       "\t 702699999 & 2017-02-10 15:59:00 & 4 & 0 & 0 & 7026 & WXPOD 7026, AF & FM-15 & 99999 & V020 & ⋯ & 99 & 9 & 10312 & 1 & 99999 & 9 & NA & NA & MET104MOBOB0 METAR 7026 //008 000000 101559Z AUTO 32004KT 9999 CLR 06/M09 A3045 RMK CDP03605 CLR CDP03661 CLR=                & \\\\\n",
       "\t 702699999 & 2017-02-10 16:04:00 & 4 & 0 & 0 & 7026 & WXPOD 7026, AF & FM-15 & 99999 & V020 & ⋯ & 99 & 9 & 10312 & 1 & 99999 & 9 & NA & NA & MET104MOBOB0 METAR 7026 //008 000000 101604Z AUTO VRB05KT 9999 CLR 06/M09 A3045 RMK CDP03661 CLR CDP03605 CLR=                & \\\\\n",
       "\t 702699999 & 2017-02-10 16:09:00 & 4 & 0 & 0 & 7026 & WXPOD 7026, AF & FM-15 & 99999 & V020 & ⋯ & 99 & 9 & 10312 & 1 & 99999 & 9 & NA & NA & MET104MOBOB0 METAR 7026 //008 000000 101609Z AUTO 30005KT 9999 CLR 07/M08 A3045 RMK CDP03605 CLR CDP03661 CLR=                & \\\\\n",
       "\t 702699999 & 2017-02-10 16:14:00 & 4 & 0 & 0 & 7026 & WXPOD 7026, AF & FM-15 & 99999 & V020 & ⋯ & 99 & 9 & 10308 & 1 & 99999 & 9 & NA & NA & MET104MOBOB0 METAR 7026 //008 000000 101614Z AUTO 28002KT 9999 CLR 06/M08 A3044 RMK CDP03661 CLR CDP03605 CLR=                & \\\\\n",
       "\t 702699999 & 2017-02-10 16:19:00 & 4 & 0 & 0 & 7026 & WXPOD 7026, AF & FM-15 & 99999 & V020 & ⋯ & 99 & 9 & 10308 & 1 & 99999 & 9 & NA & NA & MET104MOBOB0 METAR 7026 //008 000000 101619Z AUTO VRB02KT 9999 CLR 06/M09 A3044 RMK CDP03605 CLR CDP03661 CLR=                & \\\\\n",
       "\t 702699999 & 2017-02-10 16:24:00 & 4 & 0 & 0 & 7026 & WXPOD 7026, AF & FM-15 & 99999 & V020 & ⋯ & 99 & 9 & 10308 & 1 & 99999 & 9 & NA & NA & MET104MOBOB0 METAR 7026 //008 000000 101624Z AUTO VRB01KT 9999 CLR 08/M08 A3044 RMK CDP03661 CLR CDP03605 CLR=                & \\\\\n",
       "\t 702699999 & 2017-02-10 16:29:00 & 4 & 0 & 0 & 7026 & WXPOD 7026, AF & FM-15 & 99999 & V020 & ⋯ & 99 & 9 & 10308 & 1 & 99999 & 9 & NA & NA & MET104MOBOB0 METAR 7026 //008 000000 101629Z AUTO VRB03KT 9999 CLR 07/M08 A3044 RMK CDP03605 CLR CDP03661 CLR=                & \\\\\n",
       "\t 702699999 & 2017-02-10 16:34:00 & 4 & 0 & 0 & 7026 & WXPOD 7026, AF & FM-15 & 99999 & V020 & ⋯ & 99 & 9 & 10305 & 1 & 99999 & 9 & NA & NA & MET104MOBOB0 METAR 7026 //008 000000 101634Z AUTO VRB03KT 9999 CLR 08/M07 A3043 RMK CDP03661 CLR CDP03605 CLR=                & \\\\\n",
       "\t ⋮ & ⋮ & ⋮ & ⋮ & ⋮ & ⋮ & ⋮ & ⋮ & ⋮ & ⋮ & ⋱ & ⋮ & ⋮ & ⋮ & ⋮ & ⋮ & ⋮ & ⋮ & ⋮ & ⋮ & ⋮\\\\\n",
       "\t 702699999 & 2017-08-21 22:59:00 & 4 & 0 & 0 & 7026 & WXPOD 7026, AF & FM-15 & 99999 & V020 & ⋯ & 99 & 9 & 10064 & 1 & 99999 & 9 & NA & NA & MET090MOBOB3 METAR 7026 //131 341707 212259Z AUTO 19001KT 9999 CLR 23/20 A2972 RMK CDP03660 CLR=                   & \\\\\n",
       "\t 702699999 & 2017-08-21 23:29:00 & 4 & 0 & 0 & 7026 & WXPOD 7026, AF & FM-15 & 99999 & V020 & ⋯ & 99 & 9 & 10064 & 1 & 99999 & 9 & NA & NA & MET090MOBOB3 METAR 7026 //131 341707 212329Z AUTO 21001KT 9999 CLR 23/19 A2972 RMK CDP03660 CLR=                   & \\\\\n",
       "\t 702699999 & 2017-08-21 23:59:00 & 4 & 0 & 0 & 7026 & WXPOD 7026, AF & FM-15 & 99999 & V020 & ⋯ & 99 & 9 & 10064 & 1 & 99999 & 9 & NA & NA & MET090MOBOB3 METAR 7026 //131 341707 212359Z AUTO 18001KT //// CLR 23/18 A2972 RMK CDP03660 CLR=                   & \\\\\n",
       "\t 702699999 & 2017-08-22 00:29:00 & 4 & 0 & 0 & 7026 & WXPOD 7026, AF & FM-15 & 99999 & V020 & ⋯ & 99 & 9 & 10064 & 1 & 99999 & 9 & NA & NA & MET090MOBOB3 METAR 7026 //131 341707 220029Z AUTO 00000KT //// CLR 23/19 A2972 RMK CDP03660 CLR=                   & \\\\\n",
       "\t 702699999 & 2017-08-22 00:59:00 & 4 & 0 & 0 & 7026 & WXPOD 7026, AF & FM-15 & 99999 & V020 & ⋯ & 99 & 9 & 10068 & 1 & 99999 & 9 & NA & NA & MET090MOBOB3 METAR 7026 //131 341707 220059Z AUTO 00000KT 9999 CLR 22/18 A2973 RMK CDP03660 CLR=                   & \\\\\n",
       "\t 702699999 & 2017-08-22 01:29:00 & 4 & 0 & 0 & 7026 & WXPOD 7026, AF & FM-15 & 99999 & V020 & ⋯ & 99 & 9 & 10071 & 1 & 99999 & 9 & NA & NA & MET090MOBOB3 METAR 7026 //131 341707 220129Z AUTO 23001KT //// CLR 23/18 A2974 RMK CDP03660 CLR=                   & \\\\\n",
       "\t 702699999 & 2017-08-22 01:59:00 & 4 & 0 & 0 & 7026 & WXPOD 7026, AF & FM-15 & 99999 & V020 & ⋯ & 99 & 9 & 10074 & 1 & 99999 & 9 & NA & NA & MET090MOBOB3 METAR 7026 //131 341707 220159Z AUTO 23001KT 9999 CLR 24/18 A2975 RMK CDP03660 CLR=                   & \\\\\n",
       "\t 702699999 & 2017-08-22 02:29:00 & 4 & 0 & 0 & 7026 & WXPOD 7026, AF & FM-15 & 99999 & V020 & ⋯ & 99 & 9 & 10074 & 1 & 99999 & 9 & NA & NA & MET090MOBOB3 METAR 7026 //131 341707 220229Z AUTO 22001KT 9999 CLR 26/20 A2975 RMK CDP03660 CLR=                   & \\\\\n",
       "\t 702699999 & 2017-08-22 02:59:00 & 4 & 0 & 0 & 7026 & WXPOD 7026, AF & FM-15 & 99999 & V020 & ⋯ & 99 & 9 & 10078 & 1 & 99999 & 9 & NA & NA & MET090MOBOB3 METAR 7026 //131 341707 220259Z AUTO 02001KT //// CLR 27/19 A2976 RMK CDP03660 CLR=                   & \\\\\n",
       "\t 702699999 & 2017-08-22 03:29:00 & 4 & 0 & 0 & 7026 & WXPOD 7026, AF & FM-15 & 99999 & V020 & ⋯ & 99 & 9 & 10078 & 1 & 99999 & 9 & NA & NA & MET108MOBOB3 METAR 7026 //131 341707 220329Z AUTO VRB01KT 9999 SCT017 28/21 A2976 RMK CDP03660 SCT017 CLD AVG 018= & \\\\\n",
       "\t 702699999 & 2017-08-22 03:59:00 & 4 & 0 & 0 & 7026 & WXPOD 7026, AF & FM-15 & 99999 & V020 & ⋯ & 99 & 9 & 10081 & 1 & 99999 & 9 & NA & NA & MET090MOBOB3 METAR 7026 //131 341707 220359Z AUTO 03003KT 9999 CLR 27/21 A2977 RMK CDP03660 CLR=                   & \\\\\n",
       "\t 702699999 & 2017-08-22 04:29:00 & 4 & 0 & 0 & 7026 & WXPOD 7026, AF & FM-15 & 99999 & V020 & ⋯ & 99 & 9 & 10081 & 1 & 99999 & 9 & NA & NA & MET090MOBOB3 METAR 7026 //131 341707 220429Z AUTO VRB01KT 9999 CLR 28/20 A2977 RMK CDP03660 CLR=                   & \\\\\n",
       "\t 702699999 & 2017-08-22 04:59:00 & 4 & 0 & 0 & 7026 & WXPOD 7026, AF & FM-15 & 99999 & V020 & ⋯ & 99 & 9 & 10081 & 1 & 99999 & 9 & NA & NA & MET090MOBOB3 METAR 7026 //131 341707 220459Z AUTO VRB02KT 8000 CLR 27/21 A2977 RMK CDP03660 CLR=                   & \\\\\n",
       "\t 702699999 & 2017-08-22 05:29:00 & 4 & 0 & 0 & 7026 & WXPOD 7026, AF & FM-15 & 99999 & V020 & ⋯ & 99 & 9 & 10081 & 1 & 99999 & 9 & NA & NA & MET090MOBOB3 METAR 7026 //131 341707 220529Z AUTO VRB03KT //// CLR 27/20 A2977 RMK CDP03660 CLR=                   & \\\\\n",
       "\t 702699999 & 2017-08-22 05:59:00 & 4 & 0 & 0 & 7026 & WXPOD 7026, AF & FM-15 & 99999 & V020 & ⋯ & 99 & 9 & 10078 & 1 & 99999 & 9 & NA & NA & MET108MOBOB3 METAR 7026 //131 341707 220559Z AUTO 03005KT 9999 FEW024 29/22 A2976 RMK CDP03660 FEW024 CLD AVG 024= & \\\\\n",
       "\t 702699999 & 2017-08-22 06:29:00 & 4 & 0 & 0 & 7026 & WXPOD 7026, AF & FM-15 & 99999 & V020 & ⋯ & 99 & 9 & 10074 & 1 & 99999 & 9 & NA & NA & MET090MOBOB3 METAR 7026 //131 341707 220629Z AUTO VRB03KT 9999 CLR 29/20 A2975 RMK CDP03660 CLR=                   & \\\\\n",
       "\t 702699999 & 2017-08-22 06:59:00 & 4 & 0 & 0 & 7026 & WXPOD 7026, AF & FM-15 & 99999 & V020 & ⋯ & 99 & 9 & 10071 & 1 & 99999 & 9 & NA & NA & MET090MOBOB3 METAR 7026 //131 341707 220659Z AUTO 07004KT 9000 CLR 29/20 A2974 RMK CDP03660 CLR=                   & \\\\\n",
       "\t 702699999 & 2017-08-22 07:29:00 & 4 & 0 & 0 & 7026 & WXPOD 7026, AF & FM-15 & 99999 & V020 & ⋯ & 99 & 9 & 10068 & 1 & 99999 & 9 & NA & NA & MET090MOBOB3 METAR 7026 //131 341707 220729Z AUTO 02005KT 9999 CLR 30/20 A2973 RMK CDP03660 CLR=                   & \\\\\n",
       "\t 702699999 & 2017-08-22 07:59:00 & 4 & 0 & 0 & 7026 & WXPOD 7026, AF & FM-15 & 99999 & V020 & ⋯ & 99 & 9 & 10064 & 1 & 99999 & 9 & NA & NA & MET090MOBOB3 METAR 7026 //131 341707 220759Z AUTO VRB04KT 9999 CLR 30/19 A2972 RMK CDP03660 CLR=                   & \\\\\n",
       "\t 702699999 & 2017-08-22 08:29:00 & 4 & 0 & 0 & 7026 & WXPOD 7026, AF & FM-15 & 99999 & V020 & ⋯ & 99 & 9 & 10061 & 1 & 99999 & 9 & NA & NA & MET090MOBOB3 METAR 7026 //131 341707 220829Z AUTO VRB03KT 9000 CLR 30/19 A2971 RMK CDP03660 CLR=                   & \\\\\n",
       "\t 702699999 & 2017-08-22 08:59:00 & 4 & 0 & 0 & 7026 & WXPOD 7026, AF & FM-15 & 99999 & V020 & ⋯ & 99 & 9 & 10054 & 1 & 99999 & 9 & NA & NA & MET090MOBOB3 METAR 7026 //131 341707 220859Z AUTO VRB01KT 9999 CLR 32/19 A2969 RMK CDP03660 CLR=                   & \\\\\n",
       "\t 702699999 & 2017-08-22 09:29:00 & 4 & 0 & 0 & 7026 & WXPOD 7026, AF & FM-15 & 99999 & V020 & ⋯ & 99 & 9 & 10051 & 1 & 99999 & 9 & NA & NA & MET108MOBOB3 METAR 7026 //131 341707 220929Z AUTO 02003KT 9999 FEW053 31/18 A2968 RMK CDP03660 FEW053 CLD AVG 053= & \\\\\n",
       "\t 702699999 & 2017-08-22 09:59:00 & 4 & 0 & 0 & 7026 & WXPOD 7026, AF & FM-15 & 99999 & V020 & ⋯ & 99 & 9 & 10044 & 1 & 99999 & 9 & NA & NA & MET090MOBOB3 METAR 7026 //131 341707 220959Z AUTO VRB03KT 9999 CLR 31/19 A2966 RMK CDP03660 CLR=                   & \\\\\n",
       "\t 702699999 & 2017-08-22 10:29:00 & 4 & 0 & 0 & 7026 & WXPOD 7026, AF & FM-15 & 99999 & V020 & ⋯ & 99 & 9 & 10037 & 1 & 99999 & 9 & NA & NA & MET090MOBOB3 METAR 7026 //131 341707 221029Z AUTO 03004KT 9999 CLR 30/19 A2964 RMK CDP03660 CLR=                   & \\\\\n",
       "\t 702699999 & 2017-08-22 10:59:00 & 4 & 0 & 0 & 7026 & WXPOD 7026, AF & FM-15 & 99999 & V020 & ⋯ & 99 & 9 & 10034 & 1 & 99999 & 9 & NA & NA & MET090MOBOB3 METAR 7026 //131 341707 221059Z AUTO VRB04KT 9999 CLR 31/19 A2963 RMK CDP03660 CLR=                   & \\\\\n",
       "\t 702699999 & 2017-08-22 11:29:00 & 4 & 0 & 0 & 7026 & WXPOD 7026, AF & FM-15 & 99999 & V020 & ⋯ & 99 & 9 & 10030 & 1 & 99999 & 9 & NA & NA & MET090MOBOB3 METAR 7026 //131 341707 221129Z AUTO 01003KT //// CLR 31/19 A2962 RMK CDP03660 CLR=                   & \\\\\n",
       "\t 702699999 & 2017-08-22 11:59:00 & 4 & 0 & 0 & 7026 & WXPOD 7026, AF & FM-15 & 99999 & V020 & ⋯ & 99 & 9 & 10030 & 1 & 99999 & 9 & NA & NA & MET090MOBOB3 METAR 7026 //131 341707 221159Z AUTO VRB03KT 6000 CLR 31/19 A2962 RMK CDP03660 CLR=                   & \\\\\n",
       "\t 702699999 & 2017-08-22 12:29:00 & 4 & 0 & 0 & 7026 & WXPOD 7026, AF & FM-15 & 99999 & V020 & ⋯ & 99 & 9 & 10030 & 1 & 99999 & 9 & NA & NA & MET090MOBOB3 METAR 7026 //131 341707 221229Z AUTO 03004KT 4800 CLR 31/19 A2962 RMK CDP03660 CLR=                   & \\\\\n",
       "\t 702699999 & 2017-08-22 12:59:00 & 4 & 0 & 0 & 7026 & WXPOD 7026, AF & FM-15 & 99999 & V020 & ⋯ & 99 & 9 & 10030 & 1 & 99999 & 9 & NA & NA & MET090MOBOB3 METAR 7026 //131 341707 221259Z AUTO 03003KT 6000 CLR 29/20 A2962 RMK CDP03660 CLR=                   & \\\\\n",
       "\t 702699999 & 2017-08-22 13:29:00 & 4 & 0 & 0 & 7026 & WXPOD 7026, AF & FM-15 & 99999 & V020 & ⋯ & 99 & 9 & 10034 & 1 & 99999 & 9 & NA & NA & MET090MOBOB3 METAR 7026 //131 341707 221329Z AUTO 01002KT //// CLR 28/20 A2963 RMK CDP03660 CLR=                   & \\\\\n",
       "\\end{tabular}\n"
      ],
      "text/markdown": [
       "\n",
       "A tibble: 6843 × 68\n",
       "\n",
       "| station &lt;int&gt; | date &lt;dttm&gt; | source &lt;int&gt; | latitude &lt;dbl&gt; | longitude &lt;dbl&gt; | elevation &lt;dbl&gt; | name &lt;chr&gt; | report_type &lt;chr&gt; | call_sign &lt;int&gt; | quality_control &lt;chr&gt; | ⋯ ⋯ | high_cloud_genus &lt;chr&gt; | high_cloud_genus_quality &lt;chr&gt; | altimeter_setting_rate &lt;chr&gt; | altimeter_quality_code &lt;chr&gt; | station_pressure_rate &lt;chr&gt; | station_pressure_quality_code &lt;chr&gt; | speed_rate &lt;chr&gt; | quality_code &lt;chr&gt; | rem &lt;chr&gt; | eqd &lt;chr&gt; |\n",
       "|---|---|---|---|---|---|---|---|---|---|---|---|---|---|---|---|---|---|---|---|---|\n",
       "| 702699999 | 2017-02-10 14:04:00 | 4 | 0 | 0 | 7026 | WXPOD 7026, AF | FM-15 | 99999 | V020 | ⋯ | 99 | 9 | 10318 | 1 | 99999 | 9 | NA | NA | MET104MOBOB0 METAR 7026 //008 000000 101404Z AUTO VRB01KT 9999 CLR 02/M08 A3047 RMK CDP03661 CLR CDP03605 CLR=                | <!----> |\n",
       "| 702699999 | 2017-02-10 14:14:00 | 4 | 0 | 0 | 7026 | WXPOD 7026, AF | FM-15 | 99999 | V020 | ⋯ | 99 | 9 | 10318 | 1 | 99999 | 9 | NA | NA | MET104MOBOB0 METAR 7026 //008 000000 101414Z AUTO VRB01KT 9999 CLR 02/M08 A3047 RMK CDP03605 CLR CDP03661 CLR=                | <!----> |\n",
       "| 702699999 | 2017-02-10 14:19:00 | 4 | 0 | 0 | 7026 | WXPOD 7026, AF | FM-15 | 99999 | V020 | ⋯ | 99 | 9 | 10318 | 1 | 99999 | 9 | NA | NA | MET104MOBOB0 METAR 7026 //008 000000 101419Z AUTO VRB02KT 9999 CLR 03/M08 A3047 RMK CDP03605 CLR CDP03661 CLR=                | <!----> |\n",
       "| 702699999 | 2017-02-10 14:24:00 | 4 | 0 | 0 | 7026 | WXPOD 7026, AF | FM-15 | 99999 | V020 | ⋯ | 99 | 9 | 10318 | 1 | 99999 | 9 | NA | NA | MET104MOBOB0 METAR 7026 //008 000000 101424Z AUTO VRB03KT 9999 CLR 03/M09 A3047 RMK CDP03605 CLR CDP03661 CLR=                | <!----> |\n",
       "| 702699999 | 2017-02-10 14:29:00 | 4 | 0 | 0 | 7026 | WXPOD 7026, AF | FM-15 | 99999 | V020 | ⋯ | 99 | 9 | 10318 | 1 | 99999 | 9 | NA | NA | MET104MOBOB0 METAR 7026 //008 000000 101429Z AUTO 03001KT 9999 CLR 03/M08 A3047 RMK CDP03605 CLR CDP03661 CLR=                | <!----> |\n",
       "| 702699999 | 2017-02-10 14:34:00 | 4 | 0 | 0 | 7026 | WXPOD 7026, AF | FM-15 | 99999 | V020 | ⋯ | 99 | 9 | 10318 | 1 | 99999 | 9 | NA | NA | MET091MOBOB0 METAR 7026 //008 000000 101434Z AUTO VRB02KT 9999 CLR 03/M08 A3047 RMK CDP03661 CLR=                             | <!----> |\n",
       "| 702699999 | 2017-02-10 14:39:00 | 4 | 0 | 0 | 7026 | WXPOD 7026, AF | FM-15 | 99999 | V020 | ⋯ | 99 | 9 | 10318 | 1 | 99999 | 9 | NA | NA | MET104MOBOB0 METAR 7026 //008 000000 101439Z AUTO 26001KT 9999 CLR 03/M08 A3047 RMK CDP03661 CLR CDP03605 CLR=                | <!----> |\n",
       "| 702699999 | 2017-02-10 14:44:00 | 4 | 0 | 0 | 7026 | WXPOD 7026, AF | FM-15 | 99999 | V020 | ⋯ | 99 | 9 | 10318 | 1 | 99999 | 9 | NA | NA | MET104MOBOB0 METAR 7026 //008 000000 101444Z AUTO 00000KT 9999 CLR 04/M08 A3047 RMK CDP03605 CLR CDP03661 CLR=                | <!----> |\n",
       "| 702699999 | 2017-02-10 14:49:00 | 4 | 0 | 0 | 7026 | WXPOD 7026, AF | FM-15 | 99999 | V020 | ⋯ | 99 | 9 | 10318 | 1 | 99999 | 9 | NA | NA | MET119MOBOB0 METAR 7026 //008 000000 101449Z AUTO 11001KT 9999 CLR 04/M08 A3047 RMK CDP03605 CLR CDP03661 FEW056 CLD AVG 056= | <!----> |\n",
       "| 702699999 | 2017-02-10 14:54:00 | 4 | 0 | 0 | 7026 | WXPOD 7026, AF | FM-15 | 99999 | V020 | ⋯ | 99 | 9 | 10318 | 1 | 99999 | 9 | NA | NA | MET104MOBOB0 METAR 7026 //008 000000 101454Z AUTO VRB01KT 9999 CLR 04/M09 A3047 RMK CDP03661 CLR CDP03605 CLR=                | <!----> |\n",
       "| 702699999 | 2017-02-10 14:59:00 | 4 | 0 | 0 | 7026 | WXPOD 7026, AF | FM-15 | 99999 | V020 | ⋯ | 99 | 9 | 10318 | 1 | 99999 | 9 | NA | NA | MET104MOBOB0 METAR 7026 //008 000000 101459Z AUTO 00000KT 9999 CLR 04/M09 A3047 RMK CDP03661 CLR CDP03605 CLR=                | <!----> |\n",
       "| 702699999 | 2017-02-10 15:04:00 | 4 | 0 | 0 | 7026 | WXPOD 7026, AF | FM-15 | 99999 | V020 | ⋯ | 99 | 9 | 10318 | 1 | 99999 | 9 | NA | NA | MET104MOBOB0 METAR 7026 //008 000000 101504Z AUTO VRB02KT 9999 CLR 05/M08 A3047 RMK CDP03661 CLR CDP03605 CLR=                | <!----> |\n",
       "| 702699999 | 2017-02-10 15:09:00 | 4 | 0 | 0 | 7026 | WXPOD 7026, AF | FM-15 | 99999 | V020 | ⋯ | 99 | 9 | 10315 | 1 | 99999 | 9 | NA | NA | MET104MOBOB0 METAR 7026 //008 000000 101509Z AUTO 01001KT 9999 CLR 05/M08 A3046 RMK CDP03605 CLR CDP03661 CLR=                | <!----> |\n",
       "| 702699999 | 2017-02-10 15:14:00 | 4 | 0 | 0 | 7026 | WXPOD 7026, AF | FM-15 | 99999 | V020 | ⋯ | 99 | 9 | 10315 | 1 | 99999 | 9 | NA | NA | MET104MOBOB0 METAR 7026 //008 000000 101514Z AUTO 35001KT 9999 CLR 06/M09 A3046 RMK CDP03605 CLR CDP03661 CLR=                | <!----> |\n",
       "| 702699999 | 2017-02-10 15:19:00 | 4 | 0 | 0 | 7026 | WXPOD 7026, AF | FM-15 | 99999 | V020 | ⋯ | 99 | 9 | 10315 | 1 | 99999 | 9 | NA | NA | MET104MOBOB0 METAR 7026 //008 000000 101519Z AUTO 30003KT 9999 CLR 05/M09 A3046 RMK CDP03661 CLR CDP03605 CLR=                | <!----> |\n",
       "| 702699999 | 2017-02-10 15:24:00 | 4 | 0 | 0 | 7026 | WXPOD 7026, AF | FM-15 | 99999 | V020 | ⋯ | 99 | 9 | 10315 | 1 | 99999 | 9 | NA | NA | MET104MOBOB0 METAR 7026 //008 000000 101524Z AUTO VRB03KT 9999 CLR 06/M09 A3046 RMK CDP03605 CLR CDP03661 CLR=                | <!----> |\n",
       "| 702699999 | 2017-02-10 15:29:00 | 4 | 0 | 0 | 7026 | WXPOD 7026, AF | FM-15 | 99999 | V020 | ⋯ | 99 | 9 | 10315 | 1 | 99999 | 9 | NA | NA | MET104MOBOB0 METAR 7026 //008 000000 101529Z AUTO VRB03KT 9999 CLR 05/M09 A3046 RMK CDP03661 CLR CDP03605 CLR=                | <!----> |\n",
       "| 702699999 | 2017-02-10 15:34:00 | 4 | 0 | 0 | 7026 | WXPOD 7026, AF | FM-15 | 99999 | V020 | ⋯ | 99 | 9 | 10315 | 1 | 99999 | 9 | NA | NA | MET104MOBOB0 METAR 7026 //008 000000 101534Z AUTO 30003KT 9999 CLR 05/M09 A3046 RMK CDP03605 CLR CDP03661 CLR=                | <!----> |\n",
       "| 702699999 | 2017-02-10 15:39:00 | 4 | 0 | 0 | 7026 | WXPOD 7026, AF | FM-15 | 99999 | V020 | ⋯ | 99 | 9 | 10315 | 1 | 99999 | 9 | NA | NA | MET104MOBOB0 METAR 7026 //008 000000 101539Z AUTO VRB04KT 9999 CLR 06/M09 A3046 RMK CDP03605 CLR CDP03661 CLR=                | <!----> |\n",
       "| 702699999 | 2017-02-10 15:44:00 | 4 | 0 | 0 | 7026 | WXPOD 7026, AF | FM-15 | 99999 | V020 | ⋯ | 99 | 9 | 10315 | 1 | 99999 | 9 | NA | NA | MET104MOBOB0 METAR 7026 //008 000000 101544Z AUTO VRB01KT 9999 CLR 06/M09 A3046 RMK CDP03661 CLR CDP03605 CLR=                | <!----> |\n",
       "| 702699999 | 2017-02-10 15:49:00 | 4 | 0 | 0 | 7026 | WXPOD 7026, AF | FM-15 | 99999 | V020 | ⋯ | 99 | 9 | 10312 | 1 | 99999 | 9 | NA | NA | MET104MOBOB0 METAR 7026 //008 000000 101549Z AUTO VRB03KT 9999 CLR 06/M09 A3045 RMK CDP03605 CLR CDP03661 CLR=                | <!----> |\n",
       "| 702699999 | 2017-02-10 15:54:00 | 4 | 0 | 0 | 7026 | WXPOD 7026, AF | FM-15 | 99999 | V020 | ⋯ | 99 | 9 | 10312 | 1 | 99999 | 9 | NA | NA | MET104MOBOB0 METAR 7026 //008 000000 101554Z AUTO VRB02KT 9999 CLR 06/M09 A3045 RMK CDP03661 CLR CDP03605 CLR=                | <!----> |\n",
       "| 702699999 | 2017-02-10 15:59:00 | 4 | 0 | 0 | 7026 | WXPOD 7026, AF | FM-15 | 99999 | V020 | ⋯ | 99 | 9 | 10312 | 1 | 99999 | 9 | NA | NA | MET104MOBOB0 METAR 7026 //008 000000 101559Z AUTO 32004KT 9999 CLR 06/M09 A3045 RMK CDP03605 CLR CDP03661 CLR=                | <!----> |\n",
       "| 702699999 | 2017-02-10 16:04:00 | 4 | 0 | 0 | 7026 | WXPOD 7026, AF | FM-15 | 99999 | V020 | ⋯ | 99 | 9 | 10312 | 1 | 99999 | 9 | NA | NA | MET104MOBOB0 METAR 7026 //008 000000 101604Z AUTO VRB05KT 9999 CLR 06/M09 A3045 RMK CDP03661 CLR CDP03605 CLR=                | <!----> |\n",
       "| 702699999 | 2017-02-10 16:09:00 | 4 | 0 | 0 | 7026 | WXPOD 7026, AF | FM-15 | 99999 | V020 | ⋯ | 99 | 9 | 10312 | 1 | 99999 | 9 | NA | NA | MET104MOBOB0 METAR 7026 //008 000000 101609Z AUTO 30005KT 9999 CLR 07/M08 A3045 RMK CDP03605 CLR CDP03661 CLR=                | <!----> |\n",
       "| 702699999 | 2017-02-10 16:14:00 | 4 | 0 | 0 | 7026 | WXPOD 7026, AF | FM-15 | 99999 | V020 | ⋯ | 99 | 9 | 10308 | 1 | 99999 | 9 | NA | NA | MET104MOBOB0 METAR 7026 //008 000000 101614Z AUTO 28002KT 9999 CLR 06/M08 A3044 RMK CDP03661 CLR CDP03605 CLR=                | <!----> |\n",
       "| 702699999 | 2017-02-10 16:19:00 | 4 | 0 | 0 | 7026 | WXPOD 7026, AF | FM-15 | 99999 | V020 | ⋯ | 99 | 9 | 10308 | 1 | 99999 | 9 | NA | NA | MET104MOBOB0 METAR 7026 //008 000000 101619Z AUTO VRB02KT 9999 CLR 06/M09 A3044 RMK CDP03605 CLR CDP03661 CLR=                | <!----> |\n",
       "| 702699999 | 2017-02-10 16:24:00 | 4 | 0 | 0 | 7026 | WXPOD 7026, AF | FM-15 | 99999 | V020 | ⋯ | 99 | 9 | 10308 | 1 | 99999 | 9 | NA | NA | MET104MOBOB0 METAR 7026 //008 000000 101624Z AUTO VRB01KT 9999 CLR 08/M08 A3044 RMK CDP03661 CLR CDP03605 CLR=                | <!----> |\n",
       "| 702699999 | 2017-02-10 16:29:00 | 4 | 0 | 0 | 7026 | WXPOD 7026, AF | FM-15 | 99999 | V020 | ⋯ | 99 | 9 | 10308 | 1 | 99999 | 9 | NA | NA | MET104MOBOB0 METAR 7026 //008 000000 101629Z AUTO VRB03KT 9999 CLR 07/M08 A3044 RMK CDP03605 CLR CDP03661 CLR=                | <!----> |\n",
       "| 702699999 | 2017-02-10 16:34:00 | 4 | 0 | 0 | 7026 | WXPOD 7026, AF | FM-15 | 99999 | V020 | ⋯ | 99 | 9 | 10305 | 1 | 99999 | 9 | NA | NA | MET104MOBOB0 METAR 7026 //008 000000 101634Z AUTO VRB03KT 9999 CLR 08/M07 A3043 RMK CDP03661 CLR CDP03605 CLR=                | <!----> |\n",
       "| ⋮ | ⋮ | ⋮ | ⋮ | ⋮ | ⋮ | ⋮ | ⋮ | ⋮ | ⋮ | ⋱ | ⋮ | ⋮ | ⋮ | ⋮ | ⋮ | ⋮ | ⋮ | ⋮ | ⋮ | ⋮ |\n",
       "| 702699999 | 2017-08-21 22:59:00 | 4 | 0 | 0 | 7026 | WXPOD 7026, AF | FM-15 | 99999 | V020 | ⋯ | 99 | 9 | 10064 | 1 | 99999 | 9 | NA | NA | MET090MOBOB3 METAR 7026 //131 341707 212259Z AUTO 19001KT 9999 CLR 23/20 A2972 RMK CDP03660 CLR=                   | <!----> |\n",
       "| 702699999 | 2017-08-21 23:29:00 | 4 | 0 | 0 | 7026 | WXPOD 7026, AF | FM-15 | 99999 | V020 | ⋯ | 99 | 9 | 10064 | 1 | 99999 | 9 | NA | NA | MET090MOBOB3 METAR 7026 //131 341707 212329Z AUTO 21001KT 9999 CLR 23/19 A2972 RMK CDP03660 CLR=                   | <!----> |\n",
       "| 702699999 | 2017-08-21 23:59:00 | 4 | 0 | 0 | 7026 | WXPOD 7026, AF | FM-15 | 99999 | V020 | ⋯ | 99 | 9 | 10064 | 1 | 99999 | 9 | NA | NA | MET090MOBOB3 METAR 7026 //131 341707 212359Z AUTO 18001KT //// CLR 23/18 A2972 RMK CDP03660 CLR=                   | <!----> |\n",
       "| 702699999 | 2017-08-22 00:29:00 | 4 | 0 | 0 | 7026 | WXPOD 7026, AF | FM-15 | 99999 | V020 | ⋯ | 99 | 9 | 10064 | 1 | 99999 | 9 | NA | NA | MET090MOBOB3 METAR 7026 //131 341707 220029Z AUTO 00000KT //// CLR 23/19 A2972 RMK CDP03660 CLR=                   | <!----> |\n",
       "| 702699999 | 2017-08-22 00:59:00 | 4 | 0 | 0 | 7026 | WXPOD 7026, AF | FM-15 | 99999 | V020 | ⋯ | 99 | 9 | 10068 | 1 | 99999 | 9 | NA | NA | MET090MOBOB3 METAR 7026 //131 341707 220059Z AUTO 00000KT 9999 CLR 22/18 A2973 RMK CDP03660 CLR=                   | <!----> |\n",
       "| 702699999 | 2017-08-22 01:29:00 | 4 | 0 | 0 | 7026 | WXPOD 7026, AF | FM-15 | 99999 | V020 | ⋯ | 99 | 9 | 10071 | 1 | 99999 | 9 | NA | NA | MET090MOBOB3 METAR 7026 //131 341707 220129Z AUTO 23001KT //// CLR 23/18 A2974 RMK CDP03660 CLR=                   | <!----> |\n",
       "| 702699999 | 2017-08-22 01:59:00 | 4 | 0 | 0 | 7026 | WXPOD 7026, AF | FM-15 | 99999 | V020 | ⋯ | 99 | 9 | 10074 | 1 | 99999 | 9 | NA | NA | MET090MOBOB3 METAR 7026 //131 341707 220159Z AUTO 23001KT 9999 CLR 24/18 A2975 RMK CDP03660 CLR=                   | <!----> |\n",
       "| 702699999 | 2017-08-22 02:29:00 | 4 | 0 | 0 | 7026 | WXPOD 7026, AF | FM-15 | 99999 | V020 | ⋯ | 99 | 9 | 10074 | 1 | 99999 | 9 | NA | NA | MET090MOBOB3 METAR 7026 //131 341707 220229Z AUTO 22001KT 9999 CLR 26/20 A2975 RMK CDP03660 CLR=                   | <!----> |\n",
       "| 702699999 | 2017-08-22 02:59:00 | 4 | 0 | 0 | 7026 | WXPOD 7026, AF | FM-15 | 99999 | V020 | ⋯ | 99 | 9 | 10078 | 1 | 99999 | 9 | NA | NA | MET090MOBOB3 METAR 7026 //131 341707 220259Z AUTO 02001KT //// CLR 27/19 A2976 RMK CDP03660 CLR=                   | <!----> |\n",
       "| 702699999 | 2017-08-22 03:29:00 | 4 | 0 | 0 | 7026 | WXPOD 7026, AF | FM-15 | 99999 | V020 | ⋯ | 99 | 9 | 10078 | 1 | 99999 | 9 | NA | NA | MET108MOBOB3 METAR 7026 //131 341707 220329Z AUTO VRB01KT 9999 SCT017 28/21 A2976 RMK CDP03660 SCT017 CLD AVG 018= | <!----> |\n",
       "| 702699999 | 2017-08-22 03:59:00 | 4 | 0 | 0 | 7026 | WXPOD 7026, AF | FM-15 | 99999 | V020 | ⋯ | 99 | 9 | 10081 | 1 | 99999 | 9 | NA | NA | MET090MOBOB3 METAR 7026 //131 341707 220359Z AUTO 03003KT 9999 CLR 27/21 A2977 RMK CDP03660 CLR=                   | <!----> |\n",
       "| 702699999 | 2017-08-22 04:29:00 | 4 | 0 | 0 | 7026 | WXPOD 7026, AF | FM-15 | 99999 | V020 | ⋯ | 99 | 9 | 10081 | 1 | 99999 | 9 | NA | NA | MET090MOBOB3 METAR 7026 //131 341707 220429Z AUTO VRB01KT 9999 CLR 28/20 A2977 RMK CDP03660 CLR=                   | <!----> |\n",
       "| 702699999 | 2017-08-22 04:59:00 | 4 | 0 | 0 | 7026 | WXPOD 7026, AF | FM-15 | 99999 | V020 | ⋯ | 99 | 9 | 10081 | 1 | 99999 | 9 | NA | NA | MET090MOBOB3 METAR 7026 //131 341707 220459Z AUTO VRB02KT 8000 CLR 27/21 A2977 RMK CDP03660 CLR=                   | <!----> |\n",
       "| 702699999 | 2017-08-22 05:29:00 | 4 | 0 | 0 | 7026 | WXPOD 7026, AF | FM-15 | 99999 | V020 | ⋯ | 99 | 9 | 10081 | 1 | 99999 | 9 | NA | NA | MET090MOBOB3 METAR 7026 //131 341707 220529Z AUTO VRB03KT //// CLR 27/20 A2977 RMK CDP03660 CLR=                   | <!----> |\n",
       "| 702699999 | 2017-08-22 05:59:00 | 4 | 0 | 0 | 7026 | WXPOD 7026, AF | FM-15 | 99999 | V020 | ⋯ | 99 | 9 | 10078 | 1 | 99999 | 9 | NA | NA | MET108MOBOB3 METAR 7026 //131 341707 220559Z AUTO 03005KT 9999 FEW024 29/22 A2976 RMK CDP03660 FEW024 CLD AVG 024= | <!----> |\n",
       "| 702699999 | 2017-08-22 06:29:00 | 4 | 0 | 0 | 7026 | WXPOD 7026, AF | FM-15 | 99999 | V020 | ⋯ | 99 | 9 | 10074 | 1 | 99999 | 9 | NA | NA | MET090MOBOB3 METAR 7026 //131 341707 220629Z AUTO VRB03KT 9999 CLR 29/20 A2975 RMK CDP03660 CLR=                   | <!----> |\n",
       "| 702699999 | 2017-08-22 06:59:00 | 4 | 0 | 0 | 7026 | WXPOD 7026, AF | FM-15 | 99999 | V020 | ⋯ | 99 | 9 | 10071 | 1 | 99999 | 9 | NA | NA | MET090MOBOB3 METAR 7026 //131 341707 220659Z AUTO 07004KT 9000 CLR 29/20 A2974 RMK CDP03660 CLR=                   | <!----> |\n",
       "| 702699999 | 2017-08-22 07:29:00 | 4 | 0 | 0 | 7026 | WXPOD 7026, AF | FM-15 | 99999 | V020 | ⋯ | 99 | 9 | 10068 | 1 | 99999 | 9 | NA | NA | MET090MOBOB3 METAR 7026 //131 341707 220729Z AUTO 02005KT 9999 CLR 30/20 A2973 RMK CDP03660 CLR=                   | <!----> |\n",
       "| 702699999 | 2017-08-22 07:59:00 | 4 | 0 | 0 | 7026 | WXPOD 7026, AF | FM-15 | 99999 | V020 | ⋯ | 99 | 9 | 10064 | 1 | 99999 | 9 | NA | NA | MET090MOBOB3 METAR 7026 //131 341707 220759Z AUTO VRB04KT 9999 CLR 30/19 A2972 RMK CDP03660 CLR=                   | <!----> |\n",
       "| 702699999 | 2017-08-22 08:29:00 | 4 | 0 | 0 | 7026 | WXPOD 7026, AF | FM-15 | 99999 | V020 | ⋯ | 99 | 9 | 10061 | 1 | 99999 | 9 | NA | NA | MET090MOBOB3 METAR 7026 //131 341707 220829Z AUTO VRB03KT 9000 CLR 30/19 A2971 RMK CDP03660 CLR=                   | <!----> |\n",
       "| 702699999 | 2017-08-22 08:59:00 | 4 | 0 | 0 | 7026 | WXPOD 7026, AF | FM-15 | 99999 | V020 | ⋯ | 99 | 9 | 10054 | 1 | 99999 | 9 | NA | NA | MET090MOBOB3 METAR 7026 //131 341707 220859Z AUTO VRB01KT 9999 CLR 32/19 A2969 RMK CDP03660 CLR=                   | <!----> |\n",
       "| 702699999 | 2017-08-22 09:29:00 | 4 | 0 | 0 | 7026 | WXPOD 7026, AF | FM-15 | 99999 | V020 | ⋯ | 99 | 9 | 10051 | 1 | 99999 | 9 | NA | NA | MET108MOBOB3 METAR 7026 //131 341707 220929Z AUTO 02003KT 9999 FEW053 31/18 A2968 RMK CDP03660 FEW053 CLD AVG 053= | <!----> |\n",
       "| 702699999 | 2017-08-22 09:59:00 | 4 | 0 | 0 | 7026 | WXPOD 7026, AF | FM-15 | 99999 | V020 | ⋯ | 99 | 9 | 10044 | 1 | 99999 | 9 | NA | NA | MET090MOBOB3 METAR 7026 //131 341707 220959Z AUTO VRB03KT 9999 CLR 31/19 A2966 RMK CDP03660 CLR=                   | <!----> |\n",
       "| 702699999 | 2017-08-22 10:29:00 | 4 | 0 | 0 | 7026 | WXPOD 7026, AF | FM-15 | 99999 | V020 | ⋯ | 99 | 9 | 10037 | 1 | 99999 | 9 | NA | NA | MET090MOBOB3 METAR 7026 //131 341707 221029Z AUTO 03004KT 9999 CLR 30/19 A2964 RMK CDP03660 CLR=                   | <!----> |\n",
       "| 702699999 | 2017-08-22 10:59:00 | 4 | 0 | 0 | 7026 | WXPOD 7026, AF | FM-15 | 99999 | V020 | ⋯ | 99 | 9 | 10034 | 1 | 99999 | 9 | NA | NA | MET090MOBOB3 METAR 7026 //131 341707 221059Z AUTO VRB04KT 9999 CLR 31/19 A2963 RMK CDP03660 CLR=                   | <!----> |\n",
       "| 702699999 | 2017-08-22 11:29:00 | 4 | 0 | 0 | 7026 | WXPOD 7026, AF | FM-15 | 99999 | V020 | ⋯ | 99 | 9 | 10030 | 1 | 99999 | 9 | NA | NA | MET090MOBOB3 METAR 7026 //131 341707 221129Z AUTO 01003KT //// CLR 31/19 A2962 RMK CDP03660 CLR=                   | <!----> |\n",
       "| 702699999 | 2017-08-22 11:59:00 | 4 | 0 | 0 | 7026 | WXPOD 7026, AF | FM-15 | 99999 | V020 | ⋯ | 99 | 9 | 10030 | 1 | 99999 | 9 | NA | NA | MET090MOBOB3 METAR 7026 //131 341707 221159Z AUTO VRB03KT 6000 CLR 31/19 A2962 RMK CDP03660 CLR=                   | <!----> |\n",
       "| 702699999 | 2017-08-22 12:29:00 | 4 | 0 | 0 | 7026 | WXPOD 7026, AF | FM-15 | 99999 | V020 | ⋯ | 99 | 9 | 10030 | 1 | 99999 | 9 | NA | NA | MET090MOBOB3 METAR 7026 //131 341707 221229Z AUTO 03004KT 4800 CLR 31/19 A2962 RMK CDP03660 CLR=                   | <!----> |\n",
       "| 702699999 | 2017-08-22 12:59:00 | 4 | 0 | 0 | 7026 | WXPOD 7026, AF | FM-15 | 99999 | V020 | ⋯ | 99 | 9 | 10030 | 1 | 99999 | 9 | NA | NA | MET090MOBOB3 METAR 7026 //131 341707 221259Z AUTO 03003KT 6000 CLR 29/20 A2962 RMK CDP03660 CLR=                   | <!----> |\n",
       "| 702699999 | 2017-08-22 13:29:00 | 4 | 0 | 0 | 7026 | WXPOD 7026, AF | FM-15 | 99999 | V020 | ⋯ | 99 | 9 | 10034 | 1 | 99999 | 9 | NA | NA | MET090MOBOB3 METAR 7026 //131 341707 221329Z AUTO 01002KT //// CLR 28/20 A2963 RMK CDP03660 CLR=                   | <!----> |\n",
       "\n"
      ],
      "text/plain": [
       "     station   date                source latitude longitude elevation\n",
       "1    702699999 2017-02-10 14:04:00 4      0        0         7026     \n",
       "2    702699999 2017-02-10 14:14:00 4      0        0         7026     \n",
       "3    702699999 2017-02-10 14:19:00 4      0        0         7026     \n",
       "4    702699999 2017-02-10 14:24:00 4      0        0         7026     \n",
       "5    702699999 2017-02-10 14:29:00 4      0        0         7026     \n",
       "6    702699999 2017-02-10 14:34:00 4      0        0         7026     \n",
       "7    702699999 2017-02-10 14:39:00 4      0        0         7026     \n",
       "8    702699999 2017-02-10 14:44:00 4      0        0         7026     \n",
       "9    702699999 2017-02-10 14:49:00 4      0        0         7026     \n",
       "10   702699999 2017-02-10 14:54:00 4      0        0         7026     \n",
       "11   702699999 2017-02-10 14:59:00 4      0        0         7026     \n",
       "12   702699999 2017-02-10 15:04:00 4      0        0         7026     \n",
       "13   702699999 2017-02-10 15:09:00 4      0        0         7026     \n",
       "14   702699999 2017-02-10 15:14:00 4      0        0         7026     \n",
       "15   702699999 2017-02-10 15:19:00 4      0        0         7026     \n",
       "16   702699999 2017-02-10 15:24:00 4      0        0         7026     \n",
       "17   702699999 2017-02-10 15:29:00 4      0        0         7026     \n",
       "18   702699999 2017-02-10 15:34:00 4      0        0         7026     \n",
       "19   702699999 2017-02-10 15:39:00 4      0        0         7026     \n",
       "20   702699999 2017-02-10 15:44:00 4      0        0         7026     \n",
       "21   702699999 2017-02-10 15:49:00 4      0        0         7026     \n",
       "22   702699999 2017-02-10 15:54:00 4      0        0         7026     \n",
       "23   702699999 2017-02-10 15:59:00 4      0        0         7026     \n",
       "24   702699999 2017-02-10 16:04:00 4      0        0         7026     \n",
       "25   702699999 2017-02-10 16:09:00 4      0        0         7026     \n",
       "26   702699999 2017-02-10 16:14:00 4      0        0         7026     \n",
       "27   702699999 2017-02-10 16:19:00 4      0        0         7026     \n",
       "28   702699999 2017-02-10 16:24:00 4      0        0         7026     \n",
       "29   702699999 2017-02-10 16:29:00 4      0        0         7026     \n",
       "30   702699999 2017-02-10 16:34:00 4      0        0         7026     \n",
       "⋮    ⋮         ⋮                   ⋮      ⋮        ⋮         ⋮        \n",
       "6814 702699999 2017-08-21 22:59:00 4      0        0         7026     \n",
       "6815 702699999 2017-08-21 23:29:00 4      0        0         7026     \n",
       "6816 702699999 2017-08-21 23:59:00 4      0        0         7026     \n",
       "6817 702699999 2017-08-22 00:29:00 4      0        0         7026     \n",
       "6818 702699999 2017-08-22 00:59:00 4      0        0         7026     \n",
       "6819 702699999 2017-08-22 01:29:00 4      0        0         7026     \n",
       "6820 702699999 2017-08-22 01:59:00 4      0        0         7026     \n",
       "6821 702699999 2017-08-22 02:29:00 4      0        0         7026     \n",
       "6822 702699999 2017-08-22 02:59:00 4      0        0         7026     \n",
       "6823 702699999 2017-08-22 03:29:00 4      0        0         7026     \n",
       "6824 702699999 2017-08-22 03:59:00 4      0        0         7026     \n",
       "6825 702699999 2017-08-22 04:29:00 4      0        0         7026     \n",
       "6826 702699999 2017-08-22 04:59:00 4      0        0         7026     \n",
       "6827 702699999 2017-08-22 05:29:00 4      0        0         7026     \n",
       "6828 702699999 2017-08-22 05:59:00 4      0        0         7026     \n",
       "6829 702699999 2017-08-22 06:29:00 4      0        0         7026     \n",
       "6830 702699999 2017-08-22 06:59:00 4      0        0         7026     \n",
       "6831 702699999 2017-08-22 07:29:00 4      0        0         7026     \n",
       "6832 702699999 2017-08-22 07:59:00 4      0        0         7026     \n",
       "6833 702699999 2017-08-22 08:29:00 4      0        0         7026     \n",
       "6834 702699999 2017-08-22 08:59:00 4      0        0         7026     \n",
       "6835 702699999 2017-08-22 09:29:00 4      0        0         7026     \n",
       "6836 702699999 2017-08-22 09:59:00 4      0        0         7026     \n",
       "6837 702699999 2017-08-22 10:29:00 4      0        0         7026     \n",
       "6838 702699999 2017-08-22 10:59:00 4      0        0         7026     \n",
       "6839 702699999 2017-08-22 11:29:00 4      0        0         7026     \n",
       "6840 702699999 2017-08-22 11:59:00 4      0        0         7026     \n",
       "6841 702699999 2017-08-22 12:29:00 4      0        0         7026     \n",
       "6842 702699999 2017-08-22 12:59:00 4      0        0         7026     \n",
       "6843 702699999 2017-08-22 13:29:00 4      0        0         7026     \n",
       "     name           report_type call_sign quality_control ⋯ high_cloud_genus\n",
       "1    WXPOD 7026, AF FM-15       99999     V020            ⋯ 99              \n",
       "2    WXPOD 7026, AF FM-15       99999     V020            ⋯ 99              \n",
       "3    WXPOD 7026, AF FM-15       99999     V020            ⋯ 99              \n",
       "4    WXPOD 7026, AF FM-15       99999     V020            ⋯ 99              \n",
       "5    WXPOD 7026, AF FM-15       99999     V020            ⋯ 99              \n",
       "6    WXPOD 7026, AF FM-15       99999     V020            ⋯ 99              \n",
       "7    WXPOD 7026, AF FM-15       99999     V020            ⋯ 99              \n",
       "8    WXPOD 7026, AF FM-15       99999     V020            ⋯ 99              \n",
       "9    WXPOD 7026, AF FM-15       99999     V020            ⋯ 99              \n",
       "10   WXPOD 7026, AF FM-15       99999     V020            ⋯ 99              \n",
       "11   WXPOD 7026, AF FM-15       99999     V020            ⋯ 99              \n",
       "12   WXPOD 7026, AF FM-15       99999     V020            ⋯ 99              \n",
       "13   WXPOD 7026, AF FM-15       99999     V020            ⋯ 99              \n",
       "14   WXPOD 7026, AF FM-15       99999     V020            ⋯ 99              \n",
       "15   WXPOD 7026, AF FM-15       99999     V020            ⋯ 99              \n",
       "16   WXPOD 7026, AF FM-15       99999     V020            ⋯ 99              \n",
       "17   WXPOD 7026, AF FM-15       99999     V020            ⋯ 99              \n",
       "18   WXPOD 7026, AF FM-15       99999     V020            ⋯ 99              \n",
       "19   WXPOD 7026, AF FM-15       99999     V020            ⋯ 99              \n",
       "20   WXPOD 7026, AF FM-15       99999     V020            ⋯ 99              \n",
       "21   WXPOD 7026, AF FM-15       99999     V020            ⋯ 99              \n",
       "22   WXPOD 7026, AF FM-15       99999     V020            ⋯ 99              \n",
       "23   WXPOD 7026, AF FM-15       99999     V020            ⋯ 99              \n",
       "24   WXPOD 7026, AF FM-15       99999     V020            ⋯ 99              \n",
       "25   WXPOD 7026, AF FM-15       99999     V020            ⋯ 99              \n",
       "26   WXPOD 7026, AF FM-15       99999     V020            ⋯ 99              \n",
       "27   WXPOD 7026, AF FM-15       99999     V020            ⋯ 99              \n",
       "28   WXPOD 7026, AF FM-15       99999     V020            ⋯ 99              \n",
       "29   WXPOD 7026, AF FM-15       99999     V020            ⋯ 99              \n",
       "30   WXPOD 7026, AF FM-15       99999     V020            ⋯ 99              \n",
       "⋮    ⋮              ⋮           ⋮         ⋮               ⋱ ⋮               \n",
       "6814 WXPOD 7026, AF FM-15       99999     V020            ⋯ 99              \n",
       "6815 WXPOD 7026, AF FM-15       99999     V020            ⋯ 99              \n",
       "6816 WXPOD 7026, AF FM-15       99999     V020            ⋯ 99              \n",
       "6817 WXPOD 7026, AF FM-15       99999     V020            ⋯ 99              \n",
       "6818 WXPOD 7026, AF FM-15       99999     V020            ⋯ 99              \n",
       "6819 WXPOD 7026, AF FM-15       99999     V020            ⋯ 99              \n",
       "6820 WXPOD 7026, AF FM-15       99999     V020            ⋯ 99              \n",
       "6821 WXPOD 7026, AF FM-15       99999     V020            ⋯ 99              \n",
       "6822 WXPOD 7026, AF FM-15       99999     V020            ⋯ 99              \n",
       "6823 WXPOD 7026, AF FM-15       99999     V020            ⋯ 99              \n",
       "6824 WXPOD 7026, AF FM-15       99999     V020            ⋯ 99              \n",
       "6825 WXPOD 7026, AF FM-15       99999     V020            ⋯ 99              \n",
       "6826 WXPOD 7026, AF FM-15       99999     V020            ⋯ 99              \n",
       "6827 WXPOD 7026, AF FM-15       99999     V020            ⋯ 99              \n",
       "6828 WXPOD 7026, AF FM-15       99999     V020            ⋯ 99              \n",
       "6829 WXPOD 7026, AF FM-15       99999     V020            ⋯ 99              \n",
       "6830 WXPOD 7026, AF FM-15       99999     V020            ⋯ 99              \n",
       "6831 WXPOD 7026, AF FM-15       99999     V020            ⋯ 99              \n",
       "6832 WXPOD 7026, AF FM-15       99999     V020            ⋯ 99              \n",
       "6833 WXPOD 7026, AF FM-15       99999     V020            ⋯ 99              \n",
       "6834 WXPOD 7026, AF FM-15       99999     V020            ⋯ 99              \n",
       "6835 WXPOD 7026, AF FM-15       99999     V020            ⋯ 99              \n",
       "6836 WXPOD 7026, AF FM-15       99999     V020            ⋯ 99              \n",
       "6837 WXPOD 7026, AF FM-15       99999     V020            ⋯ 99              \n",
       "6838 WXPOD 7026, AF FM-15       99999     V020            ⋯ 99              \n",
       "6839 WXPOD 7026, AF FM-15       99999     V020            ⋯ 99              \n",
       "6840 WXPOD 7026, AF FM-15       99999     V020            ⋯ 99              \n",
       "6841 WXPOD 7026, AF FM-15       99999     V020            ⋯ 99              \n",
       "6842 WXPOD 7026, AF FM-15       99999     V020            ⋯ 99              \n",
       "6843 WXPOD 7026, AF FM-15       99999     V020            ⋯ 99              \n",
       "     high_cloud_genus_quality altimeter_setting_rate altimeter_quality_code\n",
       "1    9                        10318                  1                     \n",
       "2    9                        10318                  1                     \n",
       "3    9                        10318                  1                     \n",
       "4    9                        10318                  1                     \n",
       "5    9                        10318                  1                     \n",
       "6    9                        10318                  1                     \n",
       "7    9                        10318                  1                     \n",
       "8    9                        10318                  1                     \n",
       "9    9                        10318                  1                     \n",
       "10   9                        10318                  1                     \n",
       "11   9                        10318                  1                     \n",
       "12   9                        10318                  1                     \n",
       "13   9                        10315                  1                     \n",
       "14   9                        10315                  1                     \n",
       "15   9                        10315                  1                     \n",
       "16   9                        10315                  1                     \n",
       "17   9                        10315                  1                     \n",
       "18   9                        10315                  1                     \n",
       "19   9                        10315                  1                     \n",
       "20   9                        10315                  1                     \n",
       "21   9                        10312                  1                     \n",
       "22   9                        10312                  1                     \n",
       "23   9                        10312                  1                     \n",
       "24   9                        10312                  1                     \n",
       "25   9                        10312                  1                     \n",
       "26   9                        10308                  1                     \n",
       "27   9                        10308                  1                     \n",
       "28   9                        10308                  1                     \n",
       "29   9                        10308                  1                     \n",
       "30   9                        10305                  1                     \n",
       "⋮    ⋮                        ⋮                      ⋮                     \n",
       "6814 9                        10064                  1                     \n",
       "6815 9                        10064                  1                     \n",
       "6816 9                        10064                  1                     \n",
       "6817 9                        10064                  1                     \n",
       "6818 9                        10068                  1                     \n",
       "6819 9                        10071                  1                     \n",
       "6820 9                        10074                  1                     \n",
       "6821 9                        10074                  1                     \n",
       "6822 9                        10078                  1                     \n",
       "6823 9                        10078                  1                     \n",
       "6824 9                        10081                  1                     \n",
       "6825 9                        10081                  1                     \n",
       "6826 9                        10081                  1                     \n",
       "6827 9                        10081                  1                     \n",
       "6828 9                        10078                  1                     \n",
       "6829 9                        10074                  1                     \n",
       "6830 9                        10071                  1                     \n",
       "6831 9                        10068                  1                     \n",
       "6832 9                        10064                  1                     \n",
       "6833 9                        10061                  1                     \n",
       "6834 9                        10054                  1                     \n",
       "6835 9                        10051                  1                     \n",
       "6836 9                        10044                  1                     \n",
       "6837 9                        10037                  1                     \n",
       "6838 9                        10034                  1                     \n",
       "6839 9                        10030                  1                     \n",
       "6840 9                        10030                  1                     \n",
       "6841 9                        10030                  1                     \n",
       "6842 9                        10030                  1                     \n",
       "6843 9                        10034                  1                     \n",
       "     station_pressure_rate station_pressure_quality_code speed_rate\n",
       "1    99999                 9                             NA        \n",
       "2    99999                 9                             NA        \n",
       "3    99999                 9                             NA        \n",
       "4    99999                 9                             NA        \n",
       "5    99999                 9                             NA        \n",
       "6    99999                 9                             NA        \n",
       "7    99999                 9                             NA        \n",
       "8    99999                 9                             NA        \n",
       "9    99999                 9                             NA        \n",
       "10   99999                 9                             NA        \n",
       "11   99999                 9                             NA        \n",
       "12   99999                 9                             NA        \n",
       "13   99999                 9                             NA        \n",
       "14   99999                 9                             NA        \n",
       "15   99999                 9                             NA        \n",
       "16   99999                 9                             NA        \n",
       "17   99999                 9                             NA        \n",
       "18   99999                 9                             NA        \n",
       "19   99999                 9                             NA        \n",
       "20   99999                 9                             NA        \n",
       "21   99999                 9                             NA        \n",
       "22   99999                 9                             NA        \n",
       "23   99999                 9                             NA        \n",
       "24   99999                 9                             NA        \n",
       "25   99999                 9                             NA        \n",
       "26   99999                 9                             NA        \n",
       "27   99999                 9                             NA        \n",
       "28   99999                 9                             NA        \n",
       "29   99999                 9                             NA        \n",
       "30   99999                 9                             NA        \n",
       "⋮    ⋮                     ⋮                             ⋮         \n",
       "6814 99999                 9                             NA        \n",
       "6815 99999                 9                             NA        \n",
       "6816 99999                 9                             NA        \n",
       "6817 99999                 9                             NA        \n",
       "6818 99999                 9                             NA        \n",
       "6819 99999                 9                             NA        \n",
       "6820 99999                 9                             NA        \n",
       "6821 99999                 9                             NA        \n",
       "6822 99999                 9                             NA        \n",
       "6823 99999                 9                             NA        \n",
       "6824 99999                 9                             NA        \n",
       "6825 99999                 9                             NA        \n",
       "6826 99999                 9                             NA        \n",
       "6827 99999                 9                             NA        \n",
       "6828 99999                 9                             NA        \n",
       "6829 99999                 9                             NA        \n",
       "6830 99999                 9                             NA        \n",
       "6831 99999                 9                             NA        \n",
       "6832 99999                 9                             NA        \n",
       "6833 99999                 9                             NA        \n",
       "6834 99999                 9                             NA        \n",
       "6835 99999                 9                             NA        \n",
       "6836 99999                 9                             NA        \n",
       "6837 99999                 9                             NA        \n",
       "6838 99999                 9                             NA        \n",
       "6839 99999                 9                             NA        \n",
       "6840 99999                 9                             NA        \n",
       "6841 99999                 9                             NA        \n",
       "6842 99999                 9                             NA        \n",
       "6843 99999                 9                             NA        \n",
       "     quality_code\n",
       "1    NA          \n",
       "2    NA          \n",
       "3    NA          \n",
       "4    NA          \n",
       "5    NA          \n",
       "6    NA          \n",
       "7    NA          \n",
       "8    NA          \n",
       "9    NA          \n",
       "10   NA          \n",
       "11   NA          \n",
       "12   NA          \n",
       "13   NA          \n",
       "14   NA          \n",
       "15   NA          \n",
       "16   NA          \n",
       "17   NA          \n",
       "18   NA          \n",
       "19   NA          \n",
       "20   NA          \n",
       "21   NA          \n",
       "22   NA          \n",
       "23   NA          \n",
       "24   NA          \n",
       "25   NA          \n",
       "26   NA          \n",
       "27   NA          \n",
       "28   NA          \n",
       "29   NA          \n",
       "30   NA          \n",
       "⋮    ⋮           \n",
       "6814 NA          \n",
       "6815 NA          \n",
       "6816 NA          \n",
       "6817 NA          \n",
       "6818 NA          \n",
       "6819 NA          \n",
       "6820 NA          \n",
       "6821 NA          \n",
       "6822 NA          \n",
       "6823 NA          \n",
       "6824 NA          \n",
       "6825 NA          \n",
       "6826 NA          \n",
       "6827 NA          \n",
       "6828 NA          \n",
       "6829 NA          \n",
       "6830 NA          \n",
       "6831 NA          \n",
       "6832 NA          \n",
       "6833 NA          \n",
       "6834 NA          \n",
       "6835 NA          \n",
       "6836 NA          \n",
       "6837 NA          \n",
       "6838 NA          \n",
       "6839 NA          \n",
       "6840 NA          \n",
       "6841 NA          \n",
       "6842 NA          \n",
       "6843 NA          \n",
       "     rem                                                                                                                          \n",
       "1    MET104MOBOB0 METAR 7026 //008 000000 101404Z AUTO VRB01KT 9999 CLR 02/M08 A3047 RMK CDP03661 CLR CDP03605 CLR=               \n",
       "2    MET104MOBOB0 METAR 7026 //008 000000 101414Z AUTO VRB01KT 9999 CLR 02/M08 A3047 RMK CDP03605 CLR CDP03661 CLR=               \n",
       "3    MET104MOBOB0 METAR 7026 //008 000000 101419Z AUTO VRB02KT 9999 CLR 03/M08 A3047 RMK CDP03605 CLR CDP03661 CLR=               \n",
       "4    MET104MOBOB0 METAR 7026 //008 000000 101424Z AUTO VRB03KT 9999 CLR 03/M09 A3047 RMK CDP03605 CLR CDP03661 CLR=               \n",
       "5    MET104MOBOB0 METAR 7026 //008 000000 101429Z AUTO 03001KT 9999 CLR 03/M08 A3047 RMK CDP03605 CLR CDP03661 CLR=               \n",
       "6    MET091MOBOB0 METAR 7026 //008 000000 101434Z AUTO VRB02KT 9999 CLR 03/M08 A3047 RMK CDP03661 CLR=                            \n",
       "7    MET104MOBOB0 METAR 7026 //008 000000 101439Z AUTO 26001KT 9999 CLR 03/M08 A3047 RMK CDP03661 CLR CDP03605 CLR=               \n",
       "8    MET104MOBOB0 METAR 7026 //008 000000 101444Z AUTO 00000KT 9999 CLR 04/M08 A3047 RMK CDP03605 CLR CDP03661 CLR=               \n",
       "9    MET119MOBOB0 METAR 7026 //008 000000 101449Z AUTO 11001KT 9999 CLR 04/M08 A3047 RMK CDP03605 CLR CDP03661 FEW056 CLD AVG 056=\n",
       "10   MET104MOBOB0 METAR 7026 //008 000000 101454Z AUTO VRB01KT 9999 CLR 04/M09 A3047 RMK CDP03661 CLR CDP03605 CLR=               \n",
       "11   MET104MOBOB0 METAR 7026 //008 000000 101459Z AUTO 00000KT 9999 CLR 04/M09 A3047 RMK CDP03661 CLR CDP03605 CLR=               \n",
       "12   MET104MOBOB0 METAR 7026 //008 000000 101504Z AUTO VRB02KT 9999 CLR 05/M08 A3047 RMK CDP03661 CLR CDP03605 CLR=               \n",
       "13   MET104MOBOB0 METAR 7026 //008 000000 101509Z AUTO 01001KT 9999 CLR 05/M08 A3046 RMK CDP03605 CLR CDP03661 CLR=               \n",
       "14   MET104MOBOB0 METAR 7026 //008 000000 101514Z AUTO 35001KT 9999 CLR 06/M09 A3046 RMK CDP03605 CLR CDP03661 CLR=               \n",
       "15   MET104MOBOB0 METAR 7026 //008 000000 101519Z AUTO 30003KT 9999 CLR 05/M09 A3046 RMK CDP03661 CLR CDP03605 CLR=               \n",
       "16   MET104MOBOB0 METAR 7026 //008 000000 101524Z AUTO VRB03KT 9999 CLR 06/M09 A3046 RMK CDP03605 CLR CDP03661 CLR=               \n",
       "17   MET104MOBOB0 METAR 7026 //008 000000 101529Z AUTO VRB03KT 9999 CLR 05/M09 A3046 RMK CDP03661 CLR CDP03605 CLR=               \n",
       "18   MET104MOBOB0 METAR 7026 //008 000000 101534Z AUTO 30003KT 9999 CLR 05/M09 A3046 RMK CDP03605 CLR CDP03661 CLR=               \n",
       "19   MET104MOBOB0 METAR 7026 //008 000000 101539Z AUTO VRB04KT 9999 CLR 06/M09 A3046 RMK CDP03605 CLR CDP03661 CLR=               \n",
       "20   MET104MOBOB0 METAR 7026 //008 000000 101544Z AUTO VRB01KT 9999 CLR 06/M09 A3046 RMK CDP03661 CLR CDP03605 CLR=               \n",
       "21   MET104MOBOB0 METAR 7026 //008 000000 101549Z AUTO VRB03KT 9999 CLR 06/M09 A3045 RMK CDP03605 CLR CDP03661 CLR=               \n",
       "22   MET104MOBOB0 METAR 7026 //008 000000 101554Z AUTO VRB02KT 9999 CLR 06/M09 A3045 RMK CDP03661 CLR CDP03605 CLR=               \n",
       "23   MET104MOBOB0 METAR 7026 //008 000000 101559Z AUTO 32004KT 9999 CLR 06/M09 A3045 RMK CDP03605 CLR CDP03661 CLR=               \n",
       "24   MET104MOBOB0 METAR 7026 //008 000000 101604Z AUTO VRB05KT 9999 CLR 06/M09 A3045 RMK CDP03661 CLR CDP03605 CLR=               \n",
       "25   MET104MOBOB0 METAR 7026 //008 000000 101609Z AUTO 30005KT 9999 CLR 07/M08 A3045 RMK CDP03605 CLR CDP03661 CLR=               \n",
       "26   MET104MOBOB0 METAR 7026 //008 000000 101614Z AUTO 28002KT 9999 CLR 06/M08 A3044 RMK CDP03661 CLR CDP03605 CLR=               \n",
       "27   MET104MOBOB0 METAR 7026 //008 000000 101619Z AUTO VRB02KT 9999 CLR 06/M09 A3044 RMK CDP03605 CLR CDP03661 CLR=               \n",
       "28   MET104MOBOB0 METAR 7026 //008 000000 101624Z AUTO VRB01KT 9999 CLR 08/M08 A3044 RMK CDP03661 CLR CDP03605 CLR=               \n",
       "29   MET104MOBOB0 METAR 7026 //008 000000 101629Z AUTO VRB03KT 9999 CLR 07/M08 A3044 RMK CDP03605 CLR CDP03661 CLR=               \n",
       "30   MET104MOBOB0 METAR 7026 //008 000000 101634Z AUTO VRB03KT 9999 CLR 08/M07 A3043 RMK CDP03661 CLR CDP03605 CLR=               \n",
       "⋮    ⋮                                                                                                                            \n",
       "6814 MET090MOBOB3 METAR 7026 //131 341707 212259Z AUTO 19001KT 9999 CLR 23/20 A2972 RMK CDP03660 CLR=                             \n",
       "6815 MET090MOBOB3 METAR 7026 //131 341707 212329Z AUTO 21001KT 9999 CLR 23/19 A2972 RMK CDP03660 CLR=                             \n",
       "6816 MET090MOBOB3 METAR 7026 //131 341707 212359Z AUTO 18001KT //// CLR 23/18 A2972 RMK CDP03660 CLR=                             \n",
       "6817 MET090MOBOB3 METAR 7026 //131 341707 220029Z AUTO 00000KT //// CLR 23/19 A2972 RMK CDP03660 CLR=                             \n",
       "6818 MET090MOBOB3 METAR 7026 //131 341707 220059Z AUTO 00000KT 9999 CLR 22/18 A2973 RMK CDP03660 CLR=                             \n",
       "6819 MET090MOBOB3 METAR 7026 //131 341707 220129Z AUTO 23001KT //// CLR 23/18 A2974 RMK CDP03660 CLR=                             \n",
       "6820 MET090MOBOB3 METAR 7026 //131 341707 220159Z AUTO 23001KT 9999 CLR 24/18 A2975 RMK CDP03660 CLR=                             \n",
       "6821 MET090MOBOB3 METAR 7026 //131 341707 220229Z AUTO 22001KT 9999 CLR 26/20 A2975 RMK CDP03660 CLR=                             \n",
       "6822 MET090MOBOB3 METAR 7026 //131 341707 220259Z AUTO 02001KT //// CLR 27/19 A2976 RMK CDP03660 CLR=                             \n",
       "6823 MET108MOBOB3 METAR 7026 //131 341707 220329Z AUTO VRB01KT 9999 SCT017 28/21 A2976 RMK CDP03660 SCT017 CLD AVG 018=           \n",
       "6824 MET090MOBOB3 METAR 7026 //131 341707 220359Z AUTO 03003KT 9999 CLR 27/21 A2977 RMK CDP03660 CLR=                             \n",
       "6825 MET090MOBOB3 METAR 7026 //131 341707 220429Z AUTO VRB01KT 9999 CLR 28/20 A2977 RMK CDP03660 CLR=                             \n",
       "6826 MET090MOBOB3 METAR 7026 //131 341707 220459Z AUTO VRB02KT 8000 CLR 27/21 A2977 RMK CDP03660 CLR=                             \n",
       "6827 MET090MOBOB3 METAR 7026 //131 341707 220529Z AUTO VRB03KT //// CLR 27/20 A2977 RMK CDP03660 CLR=                             \n",
       "6828 MET108MOBOB3 METAR 7026 //131 341707 220559Z AUTO 03005KT 9999 FEW024 29/22 A2976 RMK CDP03660 FEW024 CLD AVG 024=           \n",
       "6829 MET090MOBOB3 METAR 7026 //131 341707 220629Z AUTO VRB03KT 9999 CLR 29/20 A2975 RMK CDP03660 CLR=                             \n",
       "6830 MET090MOBOB3 METAR 7026 //131 341707 220659Z AUTO 07004KT 9000 CLR 29/20 A2974 RMK CDP03660 CLR=                             \n",
       "6831 MET090MOBOB3 METAR 7026 //131 341707 220729Z AUTO 02005KT 9999 CLR 30/20 A2973 RMK CDP03660 CLR=                             \n",
       "6832 MET090MOBOB3 METAR 7026 //131 341707 220759Z AUTO VRB04KT 9999 CLR 30/19 A2972 RMK CDP03660 CLR=                             \n",
       "6833 MET090MOBOB3 METAR 7026 //131 341707 220829Z AUTO VRB03KT 9000 CLR 30/19 A2971 RMK CDP03660 CLR=                             \n",
       "6834 MET090MOBOB3 METAR 7026 //131 341707 220859Z AUTO VRB01KT 9999 CLR 32/19 A2969 RMK CDP03660 CLR=                             \n",
       "6835 MET108MOBOB3 METAR 7026 //131 341707 220929Z AUTO 02003KT 9999 FEW053 31/18 A2968 RMK CDP03660 FEW053 CLD AVG 053=           \n",
       "6836 MET090MOBOB3 METAR 7026 //131 341707 220959Z AUTO VRB03KT 9999 CLR 31/19 A2966 RMK CDP03660 CLR=                             \n",
       "6837 MET090MOBOB3 METAR 7026 //131 341707 221029Z AUTO 03004KT 9999 CLR 30/19 A2964 RMK CDP03660 CLR=                             \n",
       "6838 MET090MOBOB3 METAR 7026 //131 341707 221059Z AUTO VRB04KT 9999 CLR 31/19 A2963 RMK CDP03660 CLR=                             \n",
       "6839 MET090MOBOB3 METAR 7026 //131 341707 221129Z AUTO 01003KT //// CLR 31/19 A2962 RMK CDP03660 CLR=                             \n",
       "6840 MET090MOBOB3 METAR 7026 //131 341707 221159Z AUTO VRB03KT 6000 CLR 31/19 A2962 RMK CDP03660 CLR=                             \n",
       "6841 MET090MOBOB3 METAR 7026 //131 341707 221229Z AUTO 03004KT 4800 CLR 31/19 A2962 RMK CDP03660 CLR=                             \n",
       "6842 MET090MOBOB3 METAR 7026 //131 341707 221259Z AUTO 03003KT 6000 CLR 29/20 A2962 RMK CDP03660 CLR=                             \n",
       "6843 MET090MOBOB3 METAR 7026 //131 341707 221329Z AUTO 01002KT //// CLR 28/20 A2963 RMK CDP03660 CLR=                             \n",
       "     eqd\n",
       "1       \n",
       "2       \n",
       "3       \n",
       "4       \n",
       "5       \n",
       "6       \n",
       "7       \n",
       "8       \n",
       "9       \n",
       "10      \n",
       "11      \n",
       "12      \n",
       "13      \n",
       "14      \n",
       "15      \n",
       "16      \n",
       "17      \n",
       "18      \n",
       "19      \n",
       "20      \n",
       "21      \n",
       "22      \n",
       "23      \n",
       "24      \n",
       "25      \n",
       "26      \n",
       "27      \n",
       "28      \n",
       "29      \n",
       "30      \n",
       "⋮    ⋮  \n",
       "6814    \n",
       "6815    \n",
       "6816    \n",
       "6817    \n",
       "6818    \n",
       "6819    \n",
       "6820    \n",
       "6821    \n",
       "6822    \n",
       "6823    \n",
       "6824    \n",
       "6825    \n",
       "6826    \n",
       "6827    \n",
       "6828    \n",
       "6829    \n",
       "6830    \n",
       "6831    \n",
       "6832    \n",
       "6833    \n",
       "6834    \n",
       "6835    \n",
       "6836    \n",
       "6837    \n",
       "6838    \n",
       "6839    \n",
       "6840    \n",
       "6841    \n",
       "6842    \n",
       "6843    "
      ]
     },
     "metadata": {},
     "output_type": "display_data"
    }
   ],
   "source": [
    "isd_parse_csv(path)"
   ]
  },
  {
   "cell_type": "code",
   "execution_count": 10,
   "id": "c0bfbe08",
   "metadata": {},
   "outputs": [
    {
     "name": "stderr",
     "output_type": "stream",
     "text": [
      "<path>FirstDownloads/2851906.csv\n",
      "\n",
      "\n"
     ]
    },
    {
     "ename": "ERROR",
     "evalue": "Error in strsplit(as.character(x), ...): Objekt 'cig' nicht gefunden\n",
     "output_type": "error",
     "traceback": [
      "Error in strsplit(as.character(x), ...): Objekt 'cig' nicht gefunden\nTraceback:\n",
      "1. isd_parse_csv(\"FirstDownloads/2851906.csv\")",
      "2. df[, `:=`(csv_mandatory_cols$cig, tstrsplit(cig, \",\", fixed = TRUE))]",
      "3. `[.data.table`(df, , `:=`(csv_mandatory_cols$cig, tstrsplit(cig, \n .     \",\", fixed = TRUE)))",
      "4. eval(jsub, SDenv, parent.frame())",
      "5. eval(jsub, SDenv, parent.frame())",
      "6. tstrsplit(cig, \",\", fixed = TRUE)",
      "7. transpose(strsplit(as.character(x), ...), fill = fill, ignore.empty = FALSE)",
      "8. strsplit(as.character(x), ...)"
     ]
    }
   ],
   "source": [
    "isd_parse_csv('FirstDownloads/2851906.csv')"
   ]
  },
  {
   "cell_type": "code",
   "execution_count": null,
   "id": "02e2b2d6",
   "metadata": {},
   "outputs": [],
   "source": []
  }
 ],
 "metadata": {
  "kernelspec": {
   "display_name": "R",
   "language": "R",
   "name": "ir"
  },
  "language_info": {
   "codemirror_mode": "r",
   "file_extension": ".r",
   "mimetype": "text/x-r-source",
   "name": "R",
   "pygments_lexer": "r",
   "version": "4.0.2"
  }
 },
 "nbformat": 4,
 "nbformat_minor": 5
}
